{
"type": "FeatureCollection",
"name": "River-Tributaries-Lake-Lanao",
"crs": { "type": "name", "properties": { "name": "urn:ogc:def:crs:OGC:1.3:CRS84" } },
"xy_coordinate_resolution": 1e-06,
"features": [
{ "type": "Feature", "properties": { "full_id": "w229972284", "osm_id": "229972284", "osm_type": "way", "waterway": "river", "intermittent": null, "tunnel": null, "alt_name": null, "layer": null, "name:etymology:wikidata": null, "name:etymology": null, "wikipedia": null, "wikidata": null, "name": "Ramain River" }, "geometry": { "type": "LineString", "coordinates": [ [ 124.393884, 7.988312 ], [ 124.393921, 7.987857 ], [ 124.394261, 7.987264 ], [ 124.394261, 7.986956 ], [ 124.393995, 7.986708 ], [ 124.393721, 7.986693 ], [ 124.393315, 7.986825 ], [ 124.393108, 7.986971 ], [ 124.39251, 7.986971 ], [ 124.391985, 7.986935 ], [ 124.391556, 7.986832 ], [ 124.391357, 7.9867 ], [ 124.391239, 7.986349 ], [ 124.391305, 7.985734 ], [ 124.391468, 7.985171 ], [ 124.391608, 7.984922 ], [ 124.391497, 7.984724 ], [ 124.391305, 7.984681 ], [ 124.390876, 7.984907 ], [ 124.390603, 7.984966 ], [ 124.390366, 7.984915 ], [ 124.390233, 7.984703 ], [ 124.390248, 7.98449 ], [ 124.389834, 7.984146 ], [ 124.389428, 7.984198 ], [ 124.38928, 7.984315 ], [ 124.38894, 7.9846 ], [ 124.388637, 7.984629 ], [ 124.388438, 7.984527 ], [ 124.388334, 7.9843 ], [ 124.388364, 7.984081 ], [ 124.388556, 7.983502 ], [ 124.388992, 7.982983 ], [ 124.389221, 7.982646 ], [ 124.389199, 7.98228 ], [ 124.389022, 7.982075 ], [ 124.388881, 7.981768 ], [ 124.388792, 7.981197 ], [ 124.388704, 7.980604 ], [ 124.388467, 7.980378 ], [ 124.388209, 7.980304 ], [ 124.388004, 7.980297 ], [ 124.387802, 7.98036 ], [ 124.387639, 7.980483 ], [ 124.387484, 7.980604 ], [ 124.387368, 7.980714 ], [ 124.387292, 7.980827 ], [ 124.387263, 7.98095 ], [ 124.387296, 7.981198 ], [ 124.387329, 7.981365 ], [ 124.387325, 7.981535 ], [ 124.387236, 7.981804 ], [ 124.387239, 7.98201 ], [ 124.387303, 7.98216 ], [ 124.387411, 7.982229 ], [ 124.387494, 7.98223 ], [ 124.387728, 7.982075 ], [ 124.387896, 7.981989 ], [ 124.388053, 7.981954 ], [ 124.38817, 7.981983 ], [ 124.388256, 7.982043 ], [ 124.388312, 7.982161 ], [ 124.388319, 7.982296 ], [ 124.38828, 7.982397 ], [ 124.388079, 7.982653 ], [ 124.387972, 7.982844 ], [ 124.387811, 7.983152 ], [ 124.387788, 7.983447 ], [ 124.387768, 7.983673 ], [ 124.387706, 7.983816 ], [ 124.387624, 7.983892 ], [ 124.387526, 7.98391 ], [ 124.387277, 7.983856 ], [ 124.387079, 7.983737 ], [ 124.386907, 7.983617 ], [ 124.386716, 7.983442 ], [ 124.386518, 7.983142 ], [ 124.386388, 7.982929 ], [ 124.386247, 7.982717 ], [ 124.386216, 7.982617 ], [ 124.386196, 7.982435 ], [ 124.386189, 7.982186 ], [ 124.386199, 7.981673 ], [ 124.386212, 7.981481 ], [ 124.386191, 7.981336 ], [ 124.386075, 7.981238 ], [ 124.385963, 7.981221 ], [ 124.385847, 7.98127 ], [ 124.385753, 7.981396 ], [ 124.385697, 7.981535 ], [ 124.385637, 7.981635 ], [ 124.385378, 7.981856 ], [ 124.385153, 7.982068 ], [ 124.385024, 7.982119 ], [ 124.38486, 7.982143 ], [ 124.384706, 7.98209 ], [ 124.384569, 7.98199 ], [ 124.384458, 7.981853 ], [ 124.3843, 7.981632 ], [ 124.384249, 7.981407 ], [ 124.384218, 7.981029 ], [ 124.384171, 7.980902 ], [ 124.384107, 7.980824 ], [ 124.383878, 7.980743 ], [ 124.383376, 7.980758 ], [ 124.383006, 7.980619 ], [ 124.382696, 7.980348 ], [ 124.382519, 7.980173 ], [ 124.382341, 7.980107 ], [ 124.382105, 7.980173 ], [ 124.381994, 7.980356 ], [ 124.381942, 7.980721 ], [ 124.381824, 7.981117 ], [ 124.381706, 7.981497 ], [ 124.381403, 7.981556 ], [ 124.380937, 7.98168 ], [ 124.38073, 7.981951 ], [ 124.380679, 7.982324 ], [ 124.38042, 7.982617 ], [ 124.380117, 7.982712 ], [ 124.379807, 7.982705 ], [ 124.379607, 7.982507 ], [ 124.379526, 7.982288 ], [ 124.3794, 7.982039 ], [ 124.379053, 7.981673 ], [ 124.378875, 7.981146 ], [ 124.378742, 7.980524 ], [ 124.37855, 7.98037 ], [ 124.378063, 7.980399 ], [ 124.377885, 7.980604 ], [ 124.3779, 7.980853 ], [ 124.378011, 7.981051 ], [ 124.378314, 7.98127 ], [ 124.378439, 7.981439 ], [ 124.378476, 7.981775 ], [ 124.37838, 7.98198 ], [ 124.378196, 7.982229 ], [ 124.377597, 7.982858 ], [ 124.37742, 7.983129 ], [ 124.377471, 7.983444 ], [ 124.377693, 7.983751 ], [ 124.377841, 7.984154 ], [ 124.377856, 7.984498 ], [ 124.377575, 7.984871 ], [ 124.377287, 7.984973 ], [ 124.376925, 7.984849 ], [ 124.375801, 7.984432 ], [ 124.375439, 7.984571 ], [ 124.37538, 7.98479 ], [ 124.375218, 7.985112 ], [ 124.374974, 7.985266 ], [ 124.374671, 7.985281 ], [ 124.374456, 7.985039 ], [ 124.374338, 7.984878 ], [ 124.374146, 7.984688 ], [ 124.373895, 7.984673 ], [ 124.373451, 7.984724 ], [ 124.3732, 7.984659 ], [ 124.373001, 7.984476 ], [ 124.372417, 7.983985 ], [ 124.372106, 7.983971 ], [ 124.371789, 7.984183 ], [ 124.371515, 7.98422 ], [ 124.371412, 7.984081 ], [ 124.371545, 7.983802 ], [ 124.371552, 7.983524 ], [ 124.371375, 7.983495 ], [ 124.371094, 7.983605 ], [ 124.370762, 7.983868 ], [ 124.370407, 7.984037 ], [ 124.370104, 7.984183 ], [ 124.369816, 7.9843 ], [ 124.369624, 7.984505 ], [ 124.36935, 7.98479 ], [ 124.369025, 7.984746 ], [ 124.368833, 7.98471 ], [ 124.368685, 7.984907 ], [ 124.368752, 7.985229 ], [ 124.36887, 7.985603 ], [ 124.368744, 7.985888 ], [ 124.368589, 7.986386 ], [ 124.368448, 7.986473 ], [ 124.368094, 7.986437 ], [ 124.367702, 7.986217 ], [ 124.36734, 7.985873 ], [ 124.366956, 7.985244 ], [ 124.367067, 7.984812 ], [ 124.367399, 7.984388 ], [ 124.36782, 7.983802 ], [ 124.367828, 7.98351 ], [ 124.367673, 7.98321 ], [ 124.367421, 7.983166 ], [ 124.367089, 7.98321 ], [ 124.36683, 7.983429 ], [ 124.366653, 7.98348 ], [ 124.365877, 7.983188 ], [ 124.365596, 7.983151 ], [ 124.365308, 7.98318 ], [ 124.365079, 7.983407 ], [ 124.365012, 7.983517 ], [ 124.364724, 7.983554 ], [ 124.364502, 7.983415 ], [ 124.364244, 7.983107 ], [ 124.363904, 7.982536 ], [ 124.363579, 7.982258 ], [ 124.363327, 7.9822 ], [ 124.363165, 7.982339 ], [ 124.363091, 7.982661 ], [ 124.362825, 7.983166 ], [ 124.362522, 7.983297 ], [ 124.362271, 7.983436 ], [ 124.361857, 7.983766 ], [ 124.361473, 7.983934 ], [ 124.36111, 7.983919 ], [ 124.360859, 7.983795 ], [ 124.360741, 7.983583 ], [ 124.360741, 7.983341 ], [ 124.360948, 7.982968 ], [ 124.361325, 7.982419 ], [ 124.361628, 7.98209 ], [ 124.361716, 7.981819 ], [ 124.361517, 7.981709 ], [ 124.361236, 7.981731 ], [ 124.360874, 7.981827 ], [ 124.360638, 7.981922 ], [ 124.36032, 7.981929 ], [ 124.360069, 7.981797 ], [ 124.359906, 7.981541 ], [ 124.359721, 7.98127 ], [ 124.359573, 7.981124 ], [ 124.359307, 7.981058 ], [ 124.359182, 7.981278 ], [ 124.359115, 7.981687 ], [ 124.358812, 7.982075 ], [ 124.358561, 7.982236 ], [ 124.358251, 7.982236 ], [ 124.357985, 7.982053 ], [ 124.357852, 7.981746 ], [ 124.357918, 7.981175 ], [ 124.357992, 7.980787 ], [ 124.357896, 7.980568 ], [ 124.357711, 7.980509 ], [ 124.35732, 7.980597 ], [ 124.356943, 7.980619 ], [ 124.356751, 7.980487 ], [ 124.356603, 7.979748 ], [ 124.35647, 7.979521 ], [ 124.356263, 7.979477 ], [ 124.356063, 7.979631 ], [ 124.355746, 7.979924 ], [ 124.35545, 7.980012 ], [ 124.35514, 7.979924 ], [ 124.354888, 7.979741 ], [ 124.354319, 7.979221 ], [ 124.353595, 7.978863 ], [ 124.352568, 7.978548 ], [ 124.352266, 7.978461 ], [ 124.352019, 7.978432 ], [ 124.35151, 7.978412 ], [ 124.351308, 7.978384 ], [ 124.351149, 7.978321 ], [ 124.351019, 7.978265 ], [ 124.350754, 7.978063 ], [ 124.350616, 7.977957 ], [ 124.350498, 7.977886 ], [ 124.350344, 7.977828 ], [ 124.350241, 7.977824 ], [ 124.350141, 7.977875 ], [ 124.350037, 7.977996 ], [ 124.3499, 7.9782 ], [ 124.349836, 7.97835 ], [ 124.349774, 7.978498 ], [ 124.349779, 7.978683 ], [ 124.349814, 7.978777 ], [ 124.350017, 7.978895 ], [ 124.350248, 7.97893 ], [ 124.35078, 7.978921 ], [ 124.350984, 7.978947 ], [ 124.351097, 7.979053 ], [ 124.351216, 7.979229 ], [ 124.351228, 7.979309 ], [ 124.351215, 7.979489 ], [ 124.351182, 7.979598 ], [ 124.351075, 7.979668 ], [ 124.350883, 7.979712 ], [ 124.350536, 7.979707 ], [ 124.350324, 7.979731 ], [ 124.350159, 7.97977 ], [ 124.349957, 7.979853 ], [ 124.349844, 7.97993 ], [ 124.349683, 7.980079 ], [ 124.349161, 7.980524 ], [ 124.348607, 7.981016 ], [ 124.347427, 7.981941 ], [ 124.34706, 7.98226 ], [ 124.346931, 7.982392 ], [ 124.346848, 7.982539 ], [ 124.346797, 7.982732 ], [ 124.34673, 7.983176 ], [ 124.346668, 7.983532 ], [ 124.346628, 7.983598 ], [ 124.346531, 7.983675 ], [ 124.346389, 7.983755 ], [ 124.346094, 7.983864 ], [ 124.345909, 7.983925 ], [ 124.345636, 7.983975 ], [ 124.345413, 7.983975 ], [ 124.345126, 7.98393 ], [ 124.344584, 7.9838 ], [ 124.344329, 7.983795 ], [ 124.344072, 7.983848 ], [ 124.343913, 7.983898 ], [ 124.343707, 7.984029 ], [ 124.343586, 7.98414 ], [ 124.343527, 7.984276 ], [ 124.343503, 7.984422 ], [ 124.343527, 7.984571 ], [ 124.343618, 7.984833 ], [ 124.343798, 7.985227 ], [ 124.343938, 7.985617 ], [ 124.34401, 7.985973 ], [ 124.344144, 7.986467 ], [ 124.344311, 7.987062 ], [ 124.344391, 7.987461 ], [ 124.344388, 7.98766 ], [ 124.344351, 7.987824 ], [ 124.344278, 7.987928 ], [ 124.344142, 7.988034 ], [ 124.343954, 7.988119 ], [ 124.343804, 7.988223 ], [ 124.343653, 7.988382 ], [ 124.343562, 7.98852 ], [ 124.343409, 7.988794 ], [ 124.343272, 7.989025 ], [ 124.343109, 7.989219 ], [ 124.342926, 7.989383 ], [ 124.342747, 7.989535 ], [ 124.342589, 7.989689 ], [ 124.342123, 7.990263 ], [ 124.34191, 7.990446 ], [ 124.341524, 7.990733 ], [ 124.341231, 7.990921 ], [ 124.341089, 7.991041 ], [ 124.341009, 7.991134 ], [ 124.340923, 7.991344 ], [ 124.340872, 7.991548 ], [ 124.340864, 7.991756 ], [ 124.340844, 7.991959 ] ] } },
{ "type": "Feature", "properties": { "full_id": "w246994502", "osm_id": "246994502", "osm_type": "way", "waterway": "river", "intermittent": null, "tunnel": null, "alt_name": null, "layer": null, "name:etymology:wikidata": null, "name:etymology": null, "wikipedia": null, "wikidata": null, "name": "Taraka River" }, "geometry": { "type": "LineString", "coordinates": [ [ 124.385554, 7.890566 ], [ 124.385384, 7.890505 ], [ 124.385231, 7.890387 ], [ 124.384465, 7.889189 ], [ 124.38415, 7.889012 ], [ 124.383801, 7.888953 ], [ 124.383332, 7.88924 ], [ 124.38312, 7.889527 ], [ 124.383077, 7.889881 ], [ 124.383222, 7.890185 ], [ 124.383325, 7.890621 ], [ 124.383358, 7.890953 ], [ 124.383302, 7.891088 ], [ 124.383076, 7.891255 ], [ 124.382867, 7.8913 ], [ 124.382615, 7.891274 ], [ 124.382344, 7.891216 ], [ 124.382084, 7.891192 ], [ 124.381835, 7.891218 ], [ 124.381727, 7.891279 ], [ 124.381625, 7.891433 ], [ 124.381537, 7.891665 ], [ 124.381505, 7.891795 ], [ 124.3814, 7.891957 ], [ 124.381285, 7.892026 ], [ 124.381169, 7.892029 ], [ 124.381043, 7.89197 ], [ 124.380932, 7.891871 ], [ 124.380858, 7.891805 ], [ 124.38081, 7.891648 ], [ 124.380829, 7.891484 ], [ 124.380917, 7.891354 ], [ 124.381081, 7.89125 ], [ 124.381301, 7.891104 ], [ 124.381371, 7.890889 ], [ 124.381325, 7.890737 ], [ 124.381054, 7.890588 ], [ 124.380732, 7.890586 ], [ 124.380483, 7.89074 ], [ 124.380268, 7.890969 ], [ 124.380123, 7.891306 ], [ 124.380021, 7.891449 ], [ 124.379774, 7.89166 ], [ 124.379468, 7.891863 ], [ 124.379297, 7.892183 ], [ 124.379136, 7.892276 ], [ 124.378948, 7.892242 ], [ 124.378829, 7.892107 ], [ 124.378889, 7.89161 ], [ 124.378574, 7.890834 ], [ 124.378574, 7.890665 ], [ 124.378684, 7.890463 ], [ 124.378744, 7.890303 ], [ 124.378821, 7.889982 ], [ 124.378667, 7.889881 ], [ 124.378276, 7.88994 ], [ 124.377995, 7.890185 ], [ 124.377714, 7.890657 ], [ 124.377399, 7.890859 ], [ 124.377195, 7.890868 ], [ 124.376999, 7.890817 ], [ 124.37659, 7.890463 ], [ 124.376284, 7.889468 ], [ 124.375773, 7.889274 ], [ 124.375015, 7.889265 ], [ 124.374837, 7.889324 ], [ 124.374717, 7.889468 ], [ 124.374649, 7.889813 ], [ 124.374726, 7.889974 ], [ 124.375254, 7.890404 ], [ 124.375406, 7.890585 ], [ 124.375427, 7.890838 ], [ 124.375356, 7.891087 ], [ 124.375245, 7.891247 ], [ 124.375126, 7.891399 ], [ 124.374964, 7.891475 ], [ 124.373874, 7.891483 ], [ 124.373508, 7.891576 ], [ 124.373324, 7.891667 ], [ 124.373219, 7.891795 ], [ 124.373117, 7.892309 ], [ 124.373058, 7.892432 ], [ 124.372889, 7.892496 ], [ 124.372785, 7.892461 ], [ 124.372704, 7.892315 ], [ 124.372621, 7.891999 ], [ 124.372596, 7.891678 ], [ 124.372632, 7.890809 ], [ 124.372461, 7.890303 ], [ 124.372317, 7.890176 ], [ 124.372138, 7.890185 ], [ 124.371755, 7.890589 ], [ 124.37153, 7.890705 ], [ 124.371363, 7.890729 ], [ 124.37102, 7.890743 ], [ 124.370615, 7.890642 ], [ 124.370277, 7.890689 ], [ 124.370022, 7.89082 ], [ 124.369831, 7.891011 ], [ 124.369499, 7.891367 ], [ 124.369347, 7.891492 ], [ 124.369124, 7.891551 ], [ 124.368954, 7.891483 ], [ 124.36886, 7.891331 ], [ 124.368852, 7.891146 ], [ 124.368931, 7.890998 ], [ 124.369048, 7.890868 ], [ 124.36944, 7.89067 ], [ 124.369706, 7.890477 ], [ 124.369916, 7.890221 ], [ 124.370067, 7.889947 ], [ 124.37007, 7.889807 ], [ 124.370041, 7.889738 ], [ 124.369899, 7.889662 ], [ 124.369681, 7.889651 ], [ 124.369346, 7.88967 ], [ 124.369153, 7.889752 ], [ 124.369051, 7.889842 ], [ 124.368929, 7.890007 ], [ 124.368554, 7.890648 ], [ 124.368452, 7.890792 ], [ 124.368162, 7.891036 ], [ 124.367992, 7.891112 ], [ 124.367634, 7.891112 ], [ 124.367073, 7.890986 ], [ 124.366749, 7.890792 ], [ 124.366596, 7.89069 ], [ 124.366477, 7.890547 ], [ 124.36646, 7.89037 ], [ 124.366417, 7.889704 ], [ 124.3664, 7.889341 ], [ 124.366323, 7.889181 ], [ 124.366204, 7.889055 ], [ 124.366051, 7.888953 ], [ 124.365532, 7.888717 ], [ 124.365174, 7.888582 ], [ 124.364459, 7.888397 ], [ 124.364258, 7.888374 ], [ 124.364096, 7.888318 ], [ 124.36403, 7.888223 ], [ 124.363997, 7.888072 ], [ 124.364034, 7.887902 ], [ 124.36419, 7.887795 ], [ 124.364351, 7.887769 ], [ 124.364995, 7.887908 ], [ 124.365506, 7.88768 ], [ 124.365659, 7.887604 ], [ 124.365753, 7.887469 ], [ 124.365736, 7.88714 ], [ 124.365438, 7.886913 ], [ 124.364919, 7.886685 ], [ 124.364451, 7.886424 ], [ 124.364102, 7.886289 ], [ 124.36354, 7.88628 ], [ 124.363369, 7.886356 ], [ 124.363177, 7.886478 ], [ 124.362976, 7.886582 ], [ 124.362794, 7.886582 ], [ 124.362326, 7.886438 ], [ 124.361844, 7.886327 ], [ 124.361514, 7.886323 ], [ 124.36131, 7.886402 ], [ 124.360911, 7.886695 ], [ 124.360785, 7.886725 ], [ 124.360683, 7.886675 ], [ 124.360628, 7.886584 ], [ 124.360689, 7.886193 ], [ 124.361022, 7.885205 ], [ 124.361304, 7.884792 ], [ 124.361369, 7.884613 ], [ 124.361345, 7.884504 ], [ 124.361241, 7.884391 ], [ 124.361002, 7.884207 ], [ 124.360875, 7.88402 ], [ 124.360854, 7.883755 ], [ 124.360905, 7.883487 ], [ 124.361043, 7.882987 ], [ 124.360918, 7.88273 ], [ 124.360926, 7.88249 ], [ 124.360646, 7.88214 ], [ 124.360381, 7.881811 ], [ 124.360129, 7.88154 ], [ 124.359959, 7.881441 ], [ 124.359706, 7.881373 ], [ 124.359481, 7.881385 ], [ 124.359317, 7.881499 ], [ 124.358994, 7.881938 ], [ 124.358815, 7.881946 ], [ 124.358653, 7.881862 ], [ 124.357666, 7.881027 ], [ 124.357317, 7.880942 ], [ 124.356951, 7.880909 ], [ 124.356772, 7.88085 ], [ 124.356687, 7.880512 ], [ 124.357189, 7.880158 ], [ 124.357325, 7.880049 ], [ 124.357631, 7.879659 ], [ 124.357534, 7.879414 ], [ 124.356966, 7.879213 ], [ 124.356365, 7.878968 ], [ 124.355678, 7.878798 ], [ 124.355571, 7.878607 ], [ 124.355292, 7.878564 ], [ 124.354895, 7.878777 ], [ 124.354509, 7.879223 ], [ 124.354133, 7.879765 ], [ 124.353962, 7.880265 ], [ 124.353962, 7.880637 ], [ 124.353683, 7.880722 ], [ 124.353211, 7.880583 ], [ 124.352857, 7.880148 ], [ 124.352449, 7.879542 ], [ 124.352213, 7.879106 ], [ 124.35217, 7.878469 ], [ 124.352266, 7.878075 ], [ 124.352256, 7.877788 ], [ 124.352009, 7.877693 ], [ 124.351709, 7.877969 ], [ 124.35144, 7.878532 ], [ 124.351333, 7.879 ], [ 124.35114, 7.879191 ], [ 124.350722, 7.878915 ], [ 124.350593, 7.878617 ], [ 124.350571, 7.878107 ], [ 124.350217, 7.877778 ], [ 124.34981, 7.87748 ], [ 124.349498, 7.877427 ], [ 124.349198, 7.877555 ], [ 124.348833, 7.877863 ], [ 124.348715, 7.878267 ], [ 124.34864, 7.878798 ], [ 124.348436, 7.879032 ], [ 124.348157, 7.879266 ], [ 124.348136, 7.879606 ], [ 124.348232, 7.880211 ], [ 124.348082, 7.880605 ], [ 124.347675, 7.881242 ], [ 124.347331, 7.881667 ], [ 124.347106, 7.882634 ], [ 124.34658, 7.883814 ], [ 124.345958, 7.884537 ], [ 124.345346, 7.88509 ], [ 124.344488, 7.885451 ], [ 124.343851, 7.885573 ], [ 124.343104, 7.885738 ], [ 124.342814, 7.886184 ], [ 124.342847, 7.886939 ], [ 124.34275, 7.887438 ], [ 124.342235, 7.888012 ], [ 124.34142, 7.888713 ], [ 124.340722, 7.889564 ], [ 124.339757, 7.890679 ], [ 124.339113, 7.89103 ], [ 124.338598, 7.891168 ], [ 124.338341, 7.891402 ], [ 124.338126, 7.891902 ], [ 124.338029, 7.892561 ], [ 124.337814, 7.89332 ], [ 124.337589, 7.894194 ], [ 124.337498, 7.894595 ], [ 124.337428, 7.894752 ], [ 124.337152, 7.895262 ], [ 124.337079, 7.89536 ], [ 124.336803, 7.895703 ], [ 124.336605, 7.895891 ], [ 124.336452, 7.896008 ], [ 124.336081, 7.896237 ], [ 124.335615, 7.89651 ], [ 124.335317, 7.896635 ], [ 124.335239, 7.896707 ], [ 124.335068, 7.896997 ], [ 124.334971, 7.897214 ], [ 124.334893, 7.897549 ], [ 124.334899, 7.897616 ], [ 124.334893, 7.897831 ], [ 124.334877, 7.897943 ], [ 124.334813, 7.898134 ], [ 124.334518, 7.898904 ], [ 124.334461, 7.899106 ], [ 124.334427, 7.899305 ], [ 124.334429, 7.899382 ], [ 124.334502, 7.899555 ], [ 124.334539, 7.899606 ], [ 124.33474, 7.89977 ], [ 124.334818, 7.899794 ], [ 124.335145, 7.899847 ], [ 124.33587, 7.899845 ], [ 124.336041, 7.899863 ], [ 124.336087, 7.899895 ], [ 124.336173, 7.900039 ], [ 124.336178, 7.900182 ], [ 124.336146, 7.900416 ], [ 124.336092, 7.900519 ], [ 124.335915, 7.900798 ], [ 124.335843, 7.900841 ], [ 124.335634, 7.900881 ], [ 124.335566, 7.900881 ], [ 124.335188, 7.90074 ], [ 124.335065, 7.900716 ], [ 124.334789, 7.900777 ], [ 124.334636, 7.90086 ], [ 124.334604, 7.900915 ], [ 124.334614, 7.90117 ], [ 124.334596, 7.901269 ], [ 124.334488, 7.90155 ], [ 124.334451, 7.901617 ], [ 124.334164, 7.901925 ], [ 124.334038, 7.902071 ], [ 124.333941, 7.902249 ], [ 124.333694, 7.902802 ], [ 124.33337, 7.903354 ], [ 124.333187, 7.903862 ], [ 124.333037, 7.904183 ], [ 124.332951, 7.904279 ], [ 124.33275, 7.904409 ], [ 124.332678, 7.904425 ], [ 124.332458, 7.904422 ], [ 124.332404, 7.904393 ], [ 124.332149, 7.90408 ], [ 124.331988, 7.903872 ], [ 124.331967, 7.903798 ], [ 124.331801, 7.903604 ], [ 124.331742, 7.903567 ], [ 124.331481, 7.903458 ], [ 124.331409, 7.903445 ], [ 124.331095, 7.903492 ], [ 124.330747, 7.903562 ], [ 124.33068, 7.90354 ], [ 124.330502, 7.903458 ], [ 124.330462, 7.90341 ], [ 124.330433, 7.903213 ], [ 124.330443, 7.90315 ], [ 124.330599, 7.902834 ], [ 124.330663, 7.902738 ], [ 124.330921, 7.902499 ], [ 124.330999, 7.902422 ], [ 124.331219, 7.902238 ], [ 124.331256, 7.902169 ], [ 124.33127, 7.902013 ], [ 124.331229, 7.901774 ], [ 124.331189, 7.901702 ], [ 124.331066, 7.901595 ], [ 124.330942, 7.901524 ], [ 124.330787, 7.901476 ], [ 124.330489, 7.901433 ], [ 124.330414, 7.901439 ], [ 124.329966, 7.901489 ], [ 124.329784, 7.901492 ], [ 124.329708, 7.901476 ], [ 124.329553, 7.901409 ], [ 124.328982, 7.901266 ], [ 124.328371, 7.901097 ], [ 124.327964, 7.900969 ], [ 124.327756, 7.900885 ], [ 124.327651, 7.900834 ], [ 124.327561, 7.900768 ], [ 124.327472, 7.90068 ], [ 124.327378, 7.900566 ], [ 124.327155, 7.900222 ], [ 124.327097, 7.900174 ], [ 124.327032, 7.900157 ], [ 124.326951, 7.90016 ], [ 124.326639, 7.900275 ], [ 124.326485, 7.900341 ], [ 124.326344, 7.900417 ], [ 124.326265, 7.900497 ], [ 124.326227, 7.900571 ], [ 124.326195, 7.900675 ], [ 124.326191, 7.900809 ], [ 124.326216, 7.900951 ], [ 124.326249, 7.901018 ], [ 124.326314, 7.901096 ], [ 124.326452, 7.901201 ], [ 124.32656, 7.901243 ], [ 124.326686, 7.901265 ], [ 124.326991, 7.901251 ], [ 124.327284, 7.901231 ], [ 124.327441, 7.901262 ], [ 124.327535, 7.901309 ], [ 124.327611, 7.90139 ], [ 124.327673, 7.901522 ], [ 124.32769, 7.901593 ], [ 124.327689, 7.901653 ], [ 124.327657, 7.901793 ], [ 124.327653, 7.90191 ], [ 124.327667, 7.901982 ], [ 124.327687, 7.902049 ], [ 124.327738, 7.902161 ], [ 124.327773, 7.902253 ], [ 124.327795, 7.902361 ], [ 124.327797, 7.902472 ], [ 124.327771, 7.902536 ], [ 124.327724, 7.902583 ], [ 124.327651, 7.902618 ], [ 124.327572, 7.902624 ], [ 124.327482, 7.902605 ], [ 124.327324, 7.902537 ], [ 124.327166, 7.902499 ], [ 124.327037, 7.902486 ], [ 124.326884, 7.902484 ], [ 124.326708, 7.902505 ], [ 124.326597, 7.902523 ], [ 124.326498, 7.902525 ], [ 124.326383, 7.902507 ], [ 124.326228, 7.902471 ], [ 124.326089, 7.902432 ], [ 124.325988, 7.902386 ], [ 124.325857, 7.902314 ], [ 124.325723, 7.902284 ], [ 124.32563, 7.902284 ], [ 124.325555, 7.902308 ], [ 124.325497, 7.902366 ], [ 124.325472, 7.902439 ], [ 124.325475, 7.902525 ], [ 124.325504, 7.902585 ], [ 124.32555, 7.902629 ], [ 124.325611, 7.902666 ], [ 124.325909, 7.902739 ], [ 124.326116, 7.902816 ], [ 124.326299, 7.902904 ], [ 124.326425, 7.902998 ], [ 124.326509, 7.903091 ], [ 124.326568, 7.903196 ], [ 124.326601, 7.903288 ], [ 124.326606, 7.903377 ], [ 124.326593, 7.903451 ], [ 124.326515, 7.903564 ], [ 124.32643, 7.903636 ], [ 124.326325, 7.903708 ], [ 124.326188, 7.903744 ], [ 124.326063, 7.903758 ], [ 124.325937, 7.903758 ], [ 124.325751, 7.903769 ], [ 124.325513, 7.903838 ], [ 124.325378, 7.903898 ], [ 124.325221, 7.90398 ], [ 124.324973, 7.904149 ], [ 124.324866, 7.904238 ], [ 124.324768, 7.90434 ], [ 124.324612, 7.904579 ], [ 124.324548, 7.904651 ], [ 124.324496, 7.904683 ], [ 124.324446, 7.904699 ], [ 124.324374, 7.904692 ], [ 124.32432, 7.904667 ], [ 124.324285, 7.904632 ], [ 124.32427, 7.904586 ], [ 124.324264, 7.904527 ], [ 124.324281, 7.904433 ], [ 124.324331, 7.904309 ], [ 124.324425, 7.904162 ], [ 124.324509, 7.904056 ], [ 124.324624, 7.903923 ], [ 124.324677, 7.903783 ], [ 124.324686, 7.903664 ], [ 124.324655, 7.90353 ], [ 124.324628, 7.903471 ], [ 124.324568, 7.903409 ], [ 124.324461, 7.903353 ], [ 124.324321, 7.90332 ], [ 124.324144, 7.903306 ], [ 124.323911, 7.903322 ], [ 124.323572, 7.903399 ], [ 124.323332, 7.903503 ], [ 124.32324, 7.903563 ], [ 124.323164, 7.903645 ], [ 124.323097, 7.903793 ], [ 124.323071, 7.903936 ], [ 124.323094, 7.904113 ], [ 124.32316, 7.904315 ], [ 124.323207, 7.904477 ], [ 124.323223, 7.904628 ], [ 124.323228, 7.904774 ], [ 124.323208, 7.904907 ], [ 124.323164, 7.905037 ], [ 124.323124, 7.905125 ], [ 124.323058, 7.905198 ], [ 124.322991, 7.905242 ], [ 124.322888, 7.90528 ], [ 124.322814, 7.905278 ], [ 124.322716, 7.90526 ], [ 124.322548, 7.905173 ], [ 124.322031, 7.904952 ], [ 124.321886, 7.904943 ], [ 124.32175, 7.904948 ], [ 124.321588, 7.904988 ], [ 124.321321, 7.905133 ] ] } },
{ "type": "Feature", "properties": { "full_id": "w246994530", "osm_id": "246994530", "osm_type": "way", "waterway": "river", "intermittent": null, "tunnel": null, "alt_name": null, "layer": null, "name:etymology:wikidata": null, "name:etymology": null, "wikipedia": null, "wikidata": null, "name": "Taraka River" }, "geometry": { "type": "LineString", "coordinates": [ [ 124.519598, 7.856689 ], [ 124.519316, 7.85651 ], [ 124.519091, 7.856515 ], [ 124.518866, 7.856669 ], [ 124.518501, 7.856919 ], [ 124.518233, 7.856951 ], [ 124.518168, 7.856882 ], [ 124.518093, 7.856568 ], [ 124.518147, 7.856281 ], [ 124.518029, 7.85618 ], [ 124.517836, 7.856165 ], [ 124.517707, 7.856218 ], [ 124.517568, 7.856473 ], [ 124.517085, 7.857217 ], [ 124.51694, 7.857318 ], [ 124.516768, 7.857334 ], [ 124.516361, 7.857195 ], [ 124.516098, 7.85719 ], [ 124.515889, 7.857397 ], [ 124.515792, 7.857663 ], [ 124.515776, 7.858109 ], [ 124.515744, 7.8582 ], [ 124.515647, 7.858274 ], [ 124.515454, 7.858269 ], [ 124.515089, 7.858221 ], [ 124.514762, 7.858343 ], [ 124.514467, 7.858747 ], [ 124.514397, 7.859024 ], [ 124.514488, 7.859422 ], [ 124.514585, 7.859698 ], [ 124.514563, 7.859884 ], [ 124.514295, 7.860336 ], [ 124.513925, 7.860517 ], [ 124.513212, 7.860836 ], [ 124.512954, 7.861107 ], [ 124.512686, 7.861245 ], [ 124.512514, 7.861261 ], [ 124.512117, 7.861122 ], [ 124.510948, 7.860984 ], [ 124.51053, 7.861075 ], [ 124.510299, 7.861192 ], [ 124.51017, 7.861436 ], [ 124.510068, 7.861505 ], [ 124.509714, 7.861505 ], [ 124.509451, 7.861627 ], [ 124.509006, 7.862254 ], [ 124.50877, 7.862578 ], [ 124.508545, 7.862648 ], [ 124.508158, 7.862568 ], [ 124.507606, 7.862393 ], [ 124.507279, 7.86244 ], [ 124.507086, 7.862547 ], [ 124.506951, 7.862876 ], [ 124.50663, 7.863673 ], [ 124.506501, 7.863779 ], [ 124.506259, 7.863726 ], [ 124.506136, 7.863493 ], [ 124.506163, 7.863126 ], [ 124.506163, 7.862935 ], [ 124.506034, 7.86285 ], [ 124.505814, 7.862701 ], [ 124.505704, 7.862527 ], [ 124.504827, 7.862656 ], [ 124.504075, 7.862363 ], [ 124.503779, 7.861618 ], [ 124.503804, 7.860959 ], [ 124.503656, 7.860617 ], [ 124.503631, 7.860007 ], [ 124.503459, 7.859787 ], [ 124.503114, 7.85986 ], [ 124.50267, 7.860251 ], [ 124.502165, 7.860263 ], [ 124.50166, 7.860287 ], [ 124.501413, 7.859921 ], [ 124.501598, 7.859372 ], [ 124.50198, 7.858725 ], [ 124.501955, 7.858566 ], [ 124.501573, 7.85848 ], [ 124.501142, 7.85859 ], [ 124.500033, 7.858908 ], [ 124.499774, 7.858883 ], [ 124.499084, 7.858554 ], [ 124.498431, 7.858407 ], [ 124.497741, 7.85776 ], [ 124.497334, 7.857577 ], [ 124.496582, 7.857736 ], [ 124.496188, 7.857589 ], [ 124.495917, 7.857113 ], [ 124.495744, 7.856832 ], [ 124.49546, 7.856686 ], [ 124.494635, 7.856759 ], [ 124.494314, 7.856686 ], [ 124.49376, 7.856112 ], [ 124.493328, 7.855795 ], [ 124.492971, 7.855831 ], [ 124.492848, 7.856222 ], [ 124.493057, 7.856771 ], [ 124.493205, 7.857406 ], [ 124.492786, 7.858151 ], [ 124.491147, 7.85953 ], [ 124.490457, 7.860055 ], [ 124.490321, 7.85997 ], [ 124.49021, 7.859567 ], [ 124.490223, 7.859054 ], [ 124.489927, 7.858749 ], [ 124.489619, 7.858639 ], [ 124.489311, 7.859066 ], [ 124.489212, 7.859567 ], [ 124.489545, 7.860031 ], [ 124.489853, 7.860361 ], [ 124.489717, 7.860703 ], [ 124.48936, 7.860849 ], [ 124.488855, 7.860824 ], [ 124.487492, 7.862041 ], [ 124.487128, 7.862083 ], [ 124.486486, 7.862067 ], [ 124.486144, 7.8623 ], [ 124.486177, 7.862461 ], [ 124.486453, 7.862606 ], [ 124.48651, 7.8628 ], [ 124.486299, 7.863057 ], [ 124.485981, 7.863291 ], [ 124.485624, 7.863315 ], [ 124.485055, 7.86292 ], [ 124.484819, 7.862501 ], [ 124.48468, 7.862252 ], [ 124.484469, 7.862236 ], [ 124.484323, 7.862413 ], [ 124.484412, 7.862792 ], [ 124.484705, 7.86346 ], [ 124.484697, 7.863677 ], [ 124.484347, 7.86429 ], [ 124.483672, 7.864708 ], [ 124.483323, 7.864861 ], [ 124.483323, 7.86499 ], [ 124.483632, 7.865224 ], [ 124.484184, 7.865651 ], [ 124.484453, 7.865989 ], [ 124.484518, 7.866408 ], [ 124.483778, 7.867721 ], [ 124.483477, 7.867987 ], [ 124.483014, 7.868107 ], [ 124.482802, 7.868011 ], [ 124.482615, 7.867495 ], [ 124.48264, 7.867068 ], [ 124.482526, 7.866907 ], [ 124.482266, 7.866891 ], [ 124.481696, 7.867286 ], [ 124.481111, 7.868091 ], [ 124.480957, 7.868341 ], [ 124.481078, 7.868494 ], [ 124.481274, 7.868575 ], [ 124.481721, 7.868454 ], [ 124.481843, 7.868285 ], [ 124.481981, 7.868172 ], [ 124.482119, 7.868309 ], [ 124.482152, 7.868599 ], [ 124.482152, 7.869042 ], [ 124.481949, 7.869509 ], [ 124.481664, 7.869638 ], [ 124.481119, 7.870129 ], [ 124.480664, 7.870564 ], [ 124.480192, 7.870725 ], [ 124.479875, 7.870685 ], [ 124.479404, 7.870459 ], [ 124.479192, 7.870524 ], [ 124.479111, 7.870789 ], [ 124.479233, 7.871104 ], [ 124.479493, 7.871369 ], [ 124.47981, 7.871619 ], [ 124.479851, 7.871917 ], [ 124.479631, 7.872255 ], [ 124.479298, 7.872747 ], [ 124.479127, 7.873141 ], [ 124.478769, 7.873592 ], [ 124.47855, 7.873729 ], [ 124.478159, 7.873762 ], [ 124.477842, 7.873641 ], [ 124.47668, 7.873077 ], [ 124.476322, 7.873077 ], [ 124.475891, 7.873182 ], [ 124.475615, 7.873174 ], [ 124.475338, 7.8729 ], [ 124.47498, 7.872594 ], [ 124.474639, 7.87265 ], [ 124.474452, 7.872819 ], [ 124.474395, 7.873319 ], [ 124.474606, 7.873995 ], [ 124.474875, 7.874261 ], [ 124.47498, 7.874503 ], [ 124.474915, 7.874688 ], [ 124.474232, 7.875437 ], [ 124.474037, 7.875952 ], [ 124.473834, 7.876073 ], [ 124.473671, 7.876001 ], [ 124.473484, 7.875743 ], [ 124.473305, 7.87567 ], [ 124.473208, 7.875727 ], [ 124.473167, 7.876138 ], [ 124.473183, 7.876548 ], [ 124.472866, 7.876951 ], [ 124.472305, 7.877829 ], [ 124.472053, 7.87795 ], [ 124.471581, 7.877958 ], [ 124.47059, 7.878369 ], [ 124.47024, 7.878618 ], [ 124.470053, 7.878916 ], [ 124.470126, 7.879391 ], [ 124.469898, 7.879802 ], [ 124.469614, 7.879979 ], [ 124.469028, 7.8801 ], [ 124.468598, 7.880334 ], [ 124.46828, 7.880358 ], [ 124.467971, 7.880777 ], [ 124.467622, 7.881035 ], [ 124.46711, 7.881566 ], [ 124.466825, 7.881888 ], [ 124.466699, 7.882407 ], [ 124.466489, 7.882602 ], [ 124.465836, 7.882822 ], [ 124.465774, 7.883176 ], [ 124.466082, 7.883566 ], [ 124.465965, 7.883894 ], [ 124.465628, 7.884301 ], [ 124.46532, 7.884347 ], [ 124.464947, 7.884264 ], [ 124.464097, 7.883829 ], [ 124.46377, 7.883885 ], [ 124.46348, 7.884116 ], [ 124.463041, 7.884893 ], [ 124.462285, 7.88543 ], [ 124.461771, 7.88617 ], [ 124.461528, 7.886364 ], [ 124.461136, 7.88704 ], [ 124.460604, 7.887298 ], [ 124.459896, 7.887885 ], [ 124.459435, 7.888343 ], [ 124.459083, 7.88869 ], [ 124.458482, 7.888916 ], [ 124.457896, 7.888932 ], [ 124.457474, 7.88861 ], [ 124.457197, 7.888094 ], [ 124.457185, 7.88792 ], [ 124.457116, 7.886902 ], [ 124.456904, 7.885952 ], [ 124.456693, 7.885646 ], [ 124.456481, 7.88563 ], [ 124.455213, 7.886049 ], [ 124.454937, 7.886371 ], [ 124.454985, 7.887176 ], [ 124.454823, 7.887369 ], [ 124.454189, 7.88774 ], [ 124.454123, 7.888272 ], [ 124.453831, 7.889157 ], [ 124.453619, 7.889318 ], [ 124.452383, 7.889544 ], [ 124.451627, 7.889655 ], [ 124.451024, 7.889773 ], [ 124.450518, 7.889821 ], [ 124.449988, 7.889821 ], [ 124.449483, 7.889797 ], [ 124.449015, 7.889649 ], [ 124.448953, 7.88963 ], [ 124.448447, 7.889511 ], [ 124.447894, 7.889415 ], [ 124.447364, 7.889296 ], [ 124.446858, 7.889248 ], [ 124.446353, 7.88932 ], [ 124.445799, 7.88932 ], [ 124.445341, 7.889105 ], [ 124.444812, 7.888986 ], [ 124.443752, 7.888867 ], [ 124.44327, 7.8887 ], [ 124.442813, 7.888437 ], [ 124.442524, 7.888056 ], [ 124.442428, 7.887579 ], [ 124.441946, 7.887412 ], [ 124.441633, 7.887006 ], [ 124.441344, 7.886601 ], [ 124.441007, 7.886243 ], [ 124.440574, 7.885933 ], [ 124.44002, 7.885838 ], [ 124.439538, 7.885623 ], [ 124.439225, 7.885217 ], [ 124.43896, 7.884764 ], [ 124.43884, 7.884287 ], [ 124.438864, 7.883834 ], [ 124.439153, 7.882952 ], [ 124.439033, 7.882451 ], [ 124.438046, 7.882069 ], [ 124.437588, 7.881783 ], [ 124.437203, 7.881425 ], [ 124.436962, 7.88102 ], [ 124.436914, 7.880543 ], [ 124.436818, 7.880066 ], [ 124.436739, 7.879844 ], [ 124.436467, 7.879625 ], [ 124.436109, 7.87976 ], [ 124.435735, 7.879794 ], [ 124.435411, 7.879642 ], [ 124.435445, 7.879305 ], [ 124.435513, 7.878967 ], [ 124.435258, 7.878698 ], [ 124.4349, 7.878799 ], [ 124.434645, 7.878546 ], [ 124.434662, 7.878209 ], [ 124.434747, 7.877888 ], [ 124.434747, 7.877197 ], [ 124.434832, 7.876876 ], [ 124.434747, 7.875763 ], [ 124.4347, 7.875518 ], [ 124.434562, 7.87511 ], [ 124.43438, 7.874966 ], [ 124.434151, 7.874878 ], [ 124.433828, 7.874869 ], [ 124.433453, 7.874886 ], [ 124.433096, 7.875021 ], [ 124.432755, 7.875173 ], [ 124.4325, 7.875426 ], [ 124.432142, 7.875476 ], [ 124.431921, 7.87519 ], [ 124.431768, 7.874886 ], [ 124.431528, 7.874926 ], [ 124.431396, 7.875153 ], [ 124.431552, 7.875355 ], [ 124.431588, 7.875856 ], [ 124.431673, 7.876083 ], [ 124.431709, 7.876321 ], [ 124.431564, 7.876548 ], [ 124.431299, 7.876643 ], [ 124.431107, 7.876464 ], [ 124.43101, 7.875987 ], [ 124.430854, 7.87551 ], [ 124.430613, 7.875391 ], [ 124.430348, 7.875439 ], [ 124.430119, 7.875558 ], [ 124.429975, 7.875785 ], [ 124.429951, 7.876023 ], [ 124.429963, 7.876285 ], [ 124.430059, 7.876524 ], [ 124.43018, 7.876739 ], [ 124.430348, 7.876906 ], [ 124.430384, 7.877144 ], [ 124.430264, 7.877371 ], [ 124.430119, 7.877573 ], [ 124.430071, 7.877824 ], [ 124.430095, 7.878074 ], [ 124.429867, 7.878229 ], [ 124.42959, 7.878265 ], [ 124.429349, 7.878182 ], [ 124.429036, 7.877788 ], [ 124.428542, 7.877621 ], [ 124.428289, 7.877585 ], [ 124.428025, 7.877597 ], [ 124.427784, 7.877681 ], [ 124.427543, 7.877776 ], [ 124.427338, 7.877967 ], [ 124.427326, 7.878217 ], [ 124.427086, 7.878313 ], [ 124.426857, 7.878217 ], [ 124.426784, 7.877979 ], [ 124.426833, 7.87774 ], [ 124.426748, 7.877514 ], [ 124.426508, 7.877442 ], [ 124.426267, 7.87755 ], [ 124.426267, 7.8778 ], [ 124.426339, 7.878027 ], [ 124.426339, 7.878289 ], [ 124.426243, 7.878515 ], [ 124.426062, 7.878694 ], [ 124.425809, 7.878718 ], [ 124.425641, 7.878515 ], [ 124.425496, 7.878313 ], [ 124.425316, 7.878146 ], [ 124.425256, 7.877907 ], [ 124.425316, 7.877681 ], [ 124.425364, 7.877442 ], [ 124.425364, 7.877204 ], [ 124.425195, 7.877013 ], [ 124.424955, 7.876929 ], [ 124.424702, 7.876965 ], [ 124.424449, 7.877347 ], [ 124.424256, 7.877526 ], [ 124.423991, 7.877967 ], [ 124.423775, 7.87811 ], [ 124.42351, 7.87811 ], [ 124.423401, 7.877884 ], [ 124.423486, 7.877657 ], [ 124.423546, 7.87743 ], [ 124.423666, 7.877216 ], [ 124.423811, 7.877025 ], [ 124.424003, 7.87687 ], [ 124.424064, 7.876631 ], [ 124.424003, 7.876142 ], [ 124.423919, 7.875916 ], [ 124.423871, 7.875677 ], [ 124.42404, 7.875224 ], [ 124.424064, 7.874986 ], [ 124.423835, 7.874878 ], [ 124.423703, 7.875093 ], [ 124.42351, 7.875272 ], [ 124.423257, 7.875319 ], [ 124.422992, 7.875331 ], [ 124.422571, 7.875653 ], [ 124.422318, 7.875701 ], [ 124.422065, 7.875785 ], [ 124.421812, 7.87582 ], [ 124.421668, 7.875618 ], [ 124.42162, 7.875379 ], [ 124.421427, 7.8752 ], [ 124.421186, 7.875081 ], [ 124.420934, 7.875021 ], [ 124.420705, 7.875164 ], [ 124.420608, 7.875391 ], [ 124.42056, 7.875629 ], [ 124.420644, 7.875856 ], [ 124.420801, 7.876047 ], [ 124.420897, 7.876273 ], [ 124.420861, 7.876512 ], [ 124.42056, 7.876941 ], [ 124.420476, 7.87718 ], [ 124.42044, 7.87743 ], [ 124.420476, 7.877669 ], [ 124.420452, 7.877907 ], [ 124.420247, 7.878086 ], [ 124.419982, 7.878122 ], [ 124.41973, 7.878074 ], [ 124.419477, 7.877991 ], [ 124.419236, 7.877884 ], [ 124.418995, 7.877788 ], [ 124.418791, 7.877621 ], [ 124.418574, 7.877478 ], [ 124.418357, 7.877347 ], [ 124.418152, 7.877192 ], [ 124.418032, 7.876965 ], [ 124.417888, 7.876774 ], [ 124.417611, 7.876894 ], [ 124.417514, 7.87712 ], [ 124.417586, 7.877359 ], [ 124.417791, 7.877526 ], [ 124.417912, 7.877728 ], [ 124.417903, 7.877867 ], [ 124.417724, 7.87796 ], [ 124.417537, 7.878019 ], [ 124.417341, 7.878086 ], [ 124.417154, 7.87812 ], [ 124.416975, 7.878111 ], [ 124.416839, 7.878002 ], [ 124.416813, 7.877833 ], [ 124.41689, 7.877681 ], [ 124.416958, 7.877521 ], [ 124.416984, 7.877352 ], [ 124.416882, 7.877201 ], [ 124.416711, 7.87715 ], [ 124.416626, 7.876998 ], [ 124.416643, 7.87683 ], [ 124.416779, 7.876728 ], [ 124.416788, 7.87656 ], [ 124.416601, 7.876509 ], [ 124.416413, 7.876509 ], [ 124.416252, 7.876619 ], [ 124.416166, 7.876771 ], [ 124.416005, 7.876872 ], [ 124.415826, 7.876889 ], [ 124.415468, 7.876956 ], [ 124.415111, 7.876956 ], [ 124.414932, 7.876939 ], [ 124.414762, 7.876847 ], [ 124.414583, 7.876821 ], [ 124.414396, 7.87688 ], [ 124.414243, 7.877015 ], [ 124.41414, 7.877184 ], [ 124.414115, 7.877352 ], [ 124.414166, 7.877521 ], [ 124.414243, 7.877673 ], [ 124.41426, 7.87785 ], [ 124.414234, 7.878019 ], [ 124.414149, 7.878179 ], [ 124.414089, 7.878348 ], [ 124.413936, 7.878449 ], [ 124.413766, 7.878381 ], [ 124.413664, 7.878238 ], [ 124.413638, 7.878061 ], [ 124.41357, 7.877901 ], [ 124.413451, 7.877766 ], [ 124.413289, 7.87769 ], [ 124.412931, 7.877572 ], [ 124.412651, 7.877538 ], [ 124.412378, 7.877504 ], [ 124.412106, 7.877521 ], [ 124.411833, 7.877757 ], [ 124.411731, 7.877901 ], [ 124.41174, 7.878094 ], [ 124.411961, 7.878364 ], [ 124.412055, 7.878508 ], [ 124.412199, 7.878601 ], [ 124.412506, 7.878752 ], [ 124.412591, 7.878904 ], [ 124.412455, 7.879031 ], [ 124.412259, 7.879031 ], [ 124.412072, 7.87898 ], [ 124.41191, 7.878904 ], [ 124.411544, 7.878828 ], [ 124.411365, 7.878778 ], [ 124.411203, 7.878702 ], [ 124.411024, 7.878752 ], [ 124.410854, 7.878837 ], [ 124.410514, 7.879022 ], [ 124.410139, 7.87941 ], [ 124.409977, 7.879486 ], [ 124.40962, 7.879596 ], [ 124.409433, 7.879596 ], [ 124.409254, 7.879553 ], [ 124.409109, 7.879452 ], [ 124.408803, 7.879022 ], [ 124.408675, 7.878896 ], [ 124.408505, 7.87882 ], [ 124.408326, 7.878879 ], [ 124.408258, 7.879047 ], [ 124.408258, 7.879225 ], [ 124.40819, 7.879385 ], [ 124.408096, 7.879537 ], [ 124.407815, 7.87979 ], [ 124.407764, 7.879958 ], [ 124.407858, 7.88011 ], [ 124.407883, 7.880287 ], [ 124.407866, 7.880481 ], [ 124.407619, 7.880751 ], [ 124.407228, 7.881122 ], [ 124.407109, 7.881257 ], [ 124.407083, 7.881434 ], [ 124.407236, 7.881527 ], [ 124.407423, 7.881527 ], [ 124.407585, 7.881468 ], [ 124.40773, 7.881366 ], [ 124.407875, 7.881291 ], [ 124.40842, 7.881459 ], [ 124.40853, 7.881594 ], [ 124.408624, 7.881746 ], [ 124.4087, 7.881914 ], [ 124.408752, 7.882075 ], [ 124.408717, 7.88226 ], [ 124.408615, 7.882404 ], [ 124.408479, 7.88253 ], [ 124.408317, 7.882623 ], [ 124.408139, 7.88269 ], [ 124.407577, 7.882707 ], [ 124.407228, 7.882876 ], [ 124.407049, 7.882935 ], [ 124.406845, 7.882935 ], [ 124.406666, 7.882901 ], [ 124.406487, 7.882867 ], [ 124.406317, 7.882791 ], [ 124.406138, 7.882741 ], [ 124.405959, 7.882716 ], [ 124.405764, 7.882716 ], [ 124.405585, 7.882766 ], [ 124.405423, 7.882859 ], [ 124.405253, 7.882926 ], [ 124.404895, 7.883028 ], [ 124.404708, 7.883028 ], [ 124.404495, 7.882994 ], [ 124.404146, 7.882901 ], [ 124.403576, 7.882901 ], [ 124.403039, 7.882783 ], [ 124.402401, 7.882791 ], [ 124.402273, 7.882926 ], [ 124.40212, 7.883028 ], [ 124.402001, 7.883171 ], [ 124.401933, 7.88334 ], [ 124.401882, 7.883508 ], [ 124.40172, 7.883837 ], [ 124.401592, 7.883972 ], [ 124.401439, 7.884099 ], [ 124.401115, 7.884276 ], [ 124.401056, 7.884453 ], [ 124.401047, 7.884807 ], [ 124.401022, 7.884992 ], [ 124.401022, 7.885169 ], [ 124.401039, 7.885338 ], [ 124.401132, 7.885684 ], [ 124.401166, 7.88603 ], [ 124.401132, 7.886198 ], [ 124.401013, 7.886333 ], [ 124.400843, 7.886392 ], [ 124.400647, 7.886392 ], [ 124.400434, 7.886106 ], [ 124.40029, 7.885971 ], [ 124.399983, 7.885777 ], [ 124.399847, 7.885667 ], [ 124.399736, 7.885524 ], [ 124.399677, 7.885355 ], [ 124.39966, 7.885018 ], [ 124.399566, 7.884503 ], [ 124.399387, 7.884419 ], [ 124.399038, 7.884529 ], [ 124.398876, 7.884613 ], [ 124.398723, 7.884706 ], [ 124.398578, 7.884832 ], [ 124.398323, 7.885102 ], [ 124.398263, 7.885288 ], [ 124.39834, 7.885439 ], [ 124.398493, 7.885515 ], [ 124.398621, 7.885642 ], [ 124.398732, 7.885785 ], [ 124.398732, 7.885962 ], [ 124.398689, 7.886409 ], [ 124.398629, 7.886586 ], [ 124.398519, 7.886738 ], [ 124.398212, 7.886966 ], [ 124.398068, 7.887084 ], [ 124.397846, 7.887396 ], [ 124.397582, 7.887657 ], [ 124.397429, 7.88775 ], [ 124.39725, 7.887758 ], [ 124.397114, 7.887632 ], [ 124.397055, 7.887463 ], [ 124.397055, 7.886932 ], [ 124.397029, 7.886755 ], [ 124.397029, 7.886586 ], [ 124.397072, 7.886249 ], [ 124.39691, 7.886173 ], [ 124.396544, 7.886266 ], [ 124.396229, 7.886443 ], [ 124.396033, 7.88646 ], [ 124.395846, 7.886451 ], [ 124.395658, 7.886418 ], [ 124.39548, 7.886443 ], [ 124.395165, 7.886654 ], [ 124.395003, 7.88673 ], [ 124.394628, 7.886738 ], [ 124.394441, 7.886713 ], [ 124.394271, 7.886662 ], [ 124.394101, 7.88673 ], [ 124.393777, 7.886898 ], [ 124.393598, 7.886856 ], [ 124.393156, 7.886704 ], [ 124.393002, 7.886603 ], [ 124.392875, 7.886477 ], [ 124.392721, 7.886392 ], [ 124.392543, 7.88635 ], [ 124.392355, 7.886316 ], [ 124.39216, 7.886316 ], [ 124.391972, 7.886342 ], [ 124.391666, 7.886561 ], [ 124.391411, 7.886822 ], [ 124.391206, 7.887134 ], [ 124.391019, 7.887176 ], [ 124.390874, 7.887058 ], [ 124.390772, 7.88673 ], [ 124.390653, 7.886586 ], [ 124.390466, 7.886595 ], [ 124.39038, 7.886746 ], [ 124.390321, 7.886923 ], [ 124.390304, 7.887101 ], [ 124.390304, 7.887446 ], [ 124.390525, 7.888534 ], [ 124.390534, 7.888888 ], [ 124.390406, 7.889015 ], [ 124.390219, 7.889006 ], [ 124.39004, 7.888998 ], [ 124.389878, 7.888914 ], [ 124.389793, 7.88877 ], [ 124.389776, 7.888602 ], [ 124.389887, 7.88829 ], [ 124.389887, 7.888121 ], [ 124.38981, 7.887961 ], [ 124.38964, 7.887902 ], [ 124.388874, 7.88791 ], [ 124.388686, 7.887961 ], [ 124.38855, 7.888079 ], [ 124.388431, 7.888214 ], [ 124.388346, 7.888374 ], [ 124.388167, 7.888888 ], [ 124.38809, 7.889049 ], [ 124.387912, 7.889099 ], [ 124.387733, 7.889116 ], [ 124.387546, 7.889116 ], [ 124.387384, 7.88904 ], [ 124.387222, 7.888939 ], [ 124.38706, 7.888871 ], [ 124.386686, 7.888821 ], [ 124.386507, 7.888812 ], [ 124.38632, 7.888854 ], [ 124.385988, 7.889023 ], [ 124.385817, 7.889091 ], [ 124.385656, 7.889175 ], [ 124.385537, 7.889318 ], [ 124.385511, 7.889487 ], [ 124.385554, 7.889664 ], [ 124.385622, 7.889824 ], [ 124.385749, 7.889934 ], [ 124.386047, 7.890086 ], [ 124.386124, 7.890246 ], [ 124.386098, 7.890415 ], [ 124.385937, 7.890524 ], [ 124.385758, 7.890533 ], [ 124.385554, 7.890566 ] ] } },
{ "type": "Feature", "properties": { "full_id": "w246994536", "osm_id": "246994536", "osm_type": "way", "waterway": "river", "intermittent": null, "tunnel": null, "alt_name": null, "layer": null, "name:etymology:wikidata": null, "name:etymology": null, "wikipedia": null, "wikidata": null, "name": null }, "geometry": { "type": "LineString", "coordinates": [ [ 124.460791, 7.816242 ], [ 124.460732, 7.816053 ], [ 124.460587, 7.815202 ], [ 124.46056, 7.815059 ], [ 124.460269, 7.814791 ], [ 124.459784, 7.814624 ], [ 124.458271, 7.814828 ], [ 124.456347, 7.814791 ], [ 124.455744, 7.814593 ], [ 124.45511, 7.812628 ], [ 124.454687, 7.811919 ], [ 124.454362, 7.811855 ], [ 124.452346, 7.81179 ], [ 124.451396, 7.811391 ], [ 124.451107, 7.810985 ], [ 124.450843, 7.810556 ], [ 124.450554, 7.810126 ], [ 124.450385, 7.809649 ], [ 124.450313, 7.809196 ], [ 124.450216, 7.808719 ], [ 124.449976, 7.808289 ], [ 124.44959, 7.807956 ], [ 124.449253, 7.807574 ], [ 124.449205, 7.807121 ], [ 124.448964, 7.806715 ], [ 124.448579, 7.806405 ], [ 124.448074, 7.806453 ], [ 124.447712, 7.806811 ], [ 124.447664, 7.807288 ], [ 124.447544, 7.807765 ], [ 124.447086, 7.808051 ], [ 124.446821, 7.807622 ], [ 124.446701, 7.807168 ], [ 124.446219, 7.806954 ], [ 124.445786, 7.807311 ], [ 124.445593, 7.807765 ], [ 124.445449, 7.808266 ], [ 124.444943, 7.808337 ], [ 124.444486, 7.808099 ], [ 124.443956, 7.808075 ], [ 124.44345, 7.807979 ], [ 124.442415, 7.807741 ], [ 124.441861, 7.807789 ], [ 124.441428, 7.808099 ], [ 124.441476, 7.808576 ], [ 124.441717, 7.809005 ], [ 124.4415, 7.809482 ], [ 124.441259, 7.809959 ], [ 124.44097, 7.810365 ], [ 124.440489, 7.810532 ], [ 124.439983, 7.810651 ], [ 124.439477, 7.810651 ], [ 124.438972, 7.810723 ], [ 124.438442, 7.810842 ], [ 124.437937, 7.810866 ], [ 124.437383, 7.810866 ], [ 124.436877, 7.810747 ], [ 124.436588, 7.810317 ], [ 124.436371, 7.809864 ], [ 124.436106, 7.809458 ], [ 124.435938, 7.808957 ], [ 124.435649, 7.808552 ], [ 124.435167, 7.808313 ], [ 124.43471, 7.808051 ], [ 124.434252, 7.807812 ], [ 124.433289, 7.807383 ], [ 124.433, 7.807264 ], [ 124.432495, 7.80724 ], [ 124.432278, 7.807693 ], [ 124.431917, 7.808075 ], [ 124.43158, 7.808457 ], [ 124.431122, 7.808242 ], [ 124.430833, 7.80786 ], [ 124.430881, 7.807407 ], [ 124.430737, 7.806954 ], [ 124.430376, 7.806524 ], [ 124.430159, 7.806071 ], [ 124.42987, 7.805665 ], [ 124.429461, 7.805284 ], [ 124.429027, 7.804974 ], [ 124.42857, 7.804664 ], [ 124.428088, 7.804496 ], [ 124.427583, 7.804544 ], [ 124.427125, 7.804783 ], [ 124.426668, 7.805069 ], [ 124.426234, 7.805379 ], [ 124.425994, 7.805832 ], [ 124.425897, 7.80631 ], [ 124.425825, 7.806787 ], [ 124.425801, 7.807311 ], [ 124.425632, 7.807789 ], [ 124.425488, 7.808289 ], [ 124.425295, 7.808743 ], [ 124.424934, 7.809172 ], [ 124.424453, 7.809339 ], [ 124.423971, 7.809172 ], [ 124.423441, 7.809101 ], [ 124.422984, 7.809435 ], [ 124.422743, 7.809864 ], [ 124.422454, 7.810293 ], [ 124.421997, 7.810532 ], [ 124.421491, 7.810508 ], [ 124.420985, 7.810436 ], [ 124.420479, 7.810389 ], [ 124.419902, 7.810389 ], [ 124.418409, 7.81058 ], [ 124.418024, 7.810914 ], [ 124.417735, 7.811319 ], [ 124.417566, 7.81182 ], [ 124.417349, 7.812273 ], [ 124.416868, 7.812607 ], [ 124.416362, 7.812703 ], [ 124.415832, 7.81275 ], [ 124.415303, 7.812607 ], [ 124.414845, 7.812345 ], [ 124.414412, 7.812035 ], [ 124.413497, 7.811558 ], [ 124.412991, 7.811415 ], [ 124.412461, 7.811367 ], [ 124.411908, 7.811343 ], [ 124.411378, 7.811343 ], [ 124.410848, 7.811224 ], [ 124.410342, 7.811009 ], [ 124.408801, 7.810556 ], [ 124.408272, 7.81046 ], [ 124.407742, 7.810436 ], [ 124.406129, 7.810436 ], [ 124.405623, 7.810627 ], [ 124.405141, 7.81089 ], [ 124.404708, 7.811152 ], [ 124.403841, 7.811772 ], [ 124.403312, 7.811915 ], [ 124.402758, 7.811915 ], [ 124.402469, 7.811963 ], [ 124.402011, 7.812178 ], [ 124.401602, 7.812488 ], [ 124.401506, 7.812965 ], [ 124.401385, 7.813442 ], [ 124.401313, 7.813919 ], [ 124.401048, 7.814373 ], [ 124.400687, 7.814754 ], [ 124.399652, 7.815041 ], [ 124.399146, 7.81516 ], [ 124.398689, 7.81547 ], [ 124.398375, 7.815899 ], [ 124.398496, 7.816376 ], [ 124.398568, 7.816853 ], [ 124.398351, 7.817307 ], [ 124.398279, 7.817808 ], [ 124.398472, 7.818237 ], [ 124.398785, 7.818619 ], [ 124.398953, 7.818977 ], [ 124.399122, 7.819477 ], [ 124.399242, 7.819955 ], [ 124.399218, 7.820479 ], [ 124.398472, 7.821219 ], [ 124.398183, 7.821624 ], [ 124.398014, 7.822125 ], [ 124.397942, 7.822603 ], [ 124.397773, 7.823103 ], [ 124.39746, 7.823509 ], [ 124.397147, 7.823962 ], [ 124.396642, 7.824869 ], [ 124.396353, 7.825298 ], [ 124.395895, 7.82556 ], [ 124.395342, 7.825608 ], [ 124.394932, 7.82599 ], [ 124.394643, 7.826395 ], [ 124.39421, 7.826729 ], [ 124.393752, 7.826968 ], [ 124.393247, 7.827087 ], [ 124.392741, 7.82723 ], [ 124.392259, 7.827397 ], [ 124.391754, 7.827612 ], [ 124.391272, 7.827803 ], [ 124.390767, 7.827946 ], [ 124.390598, 7.828423 ], [ 124.390574, 7.828852 ], [ 124.390405, 7.829353 ], [ 124.390165, 7.829806 ], [ 124.389755, 7.830117 ], [ 124.389274, 7.830331 ], [ 124.388792, 7.830522 ], [ 124.388287, 7.830498 ], [ 124.388022, 7.830069 ], [ 124.388214, 7.829639 ], [ 124.388503, 7.82921 ], [ 124.3886, 7.828709 ], [ 124.388383, 7.828256 ], [ 124.387853, 7.828113 ], [ 124.387348, 7.828137 ], [ 124.386818, 7.82828 ], [ 124.386457, 7.828661 ], [ 124.386312, 7.829139 ], [ 124.385782, 7.829258 ], [ 124.385301, 7.829496 ], [ 124.384819, 7.829711 ], [ 124.384434, 7.830093 ], [ 124.384314, 7.830594 ], [ 124.384241, 7.831095 ], [ 124.38376, 7.831333 ], [ 124.383206, 7.831333 ], [ 124.3827, 7.831381 ], [ 124.382267, 7.831667 ], [ 124.382267, 7.832144 ], [ 124.382387, 7.832645 ], [ 124.382435, 7.833122 ], [ 124.382435, 7.833599 ], [ 124.382243, 7.834124 ], [ 124.381833, 7.834458 ], [ 124.381328, 7.834673 ], [ 124.380774, 7.83472 ], [ 124.380292, 7.834959 ], [ 124.379907, 7.835317 ], [ 124.379787, 7.835818 ], [ 124.37957, 7.836271 ], [ 124.379402, 7.836748 ], [ 124.379305, 7.837225 ], [ 124.379233, 7.837726 ], [ 124.379305, 7.838537 ], [ 124.379329, 7.839038 ], [ 124.379329, 7.84097 ], [ 124.379161, 7.841447 ], [ 124.378944, 7.841924 ], [ 124.378655, 7.84233 ], [ 124.378487, 7.842807 ], [ 124.378366, 7.843284 ], [ 124.378366, 7.843761 ], [ 124.378511, 7.844214 ], [ 124.378471, 7.845134 ], [ 124.378386, 7.845489 ], [ 124.378063, 7.845657 ], [ 124.377705, 7.845624 ], [ 124.377347, 7.845539 ], [ 124.377007, 7.845674 ], [ 124.376632, 7.845674 ], [ 124.376275, 7.845691 ], [ 124.376226, 7.845731 ], [ 124.375985, 7.845961 ], [ 124.375832, 7.846281 ], [ 124.375628, 7.846568 ], [ 124.375509, 7.846922 ], [ 124.375236, 7.847192 ], [ 124.374913, 7.847023 ], [ 124.374606, 7.847209 ], [ 124.374368, 7.847479 ], [ 124.374027, 7.847648 ], [ 124.37367, 7.847597 ], [ 124.373329, 7.847479 ], [ 124.373023, 7.847293 ], [ 124.372699, 7.847125 ], [ 124.372563, 7.847462 ], [ 124.372648, 7.847799 ], [ 124.372767, 7.84812 ], [ 124.372802, 7.848457 ], [ 124.37275, 7.848795 ], [ 124.372614, 7.849166 ], [ 124.37224, 7.849166 ], [ 124.371916, 7.848997 ], [ 124.371542, 7.848929 ], [ 124.371167, 7.848929 ], [ 124.370861, 7.849115 ], [ 124.370745, 7.8493 ], [ 124.370637, 7.84955 ], [ 124.370517, 7.849765 ], [ 124.370336, 7.849967 ], [ 124.370144, 7.850146 ], [ 124.370023, 7.850361 ], [ 124.369963, 7.850612 ], [ 124.369963, 7.850874 ], [ 124.369915, 7.851375 ], [ 124.369879, 7.851613 ], [ 124.369867, 7.851864 ], [ 124.369879, 7.852651 ], [ 124.369686, 7.852842 ], [ 124.369409, 7.852842 ], [ 124.369168, 7.852925 ], [ 124.369048, 7.853164 ], [ 124.369036, 7.853426 ], [ 124.368964, 7.853665 ], [ 124.368771, 7.853855 ], [ 124.368627, 7.854058 ], [ 124.368374, 7.85413 ], [ 124.368109, 7.854034 ], [ 124.367868, 7.853927 ], [ 124.367615, 7.853855 ], [ 124.367466, 7.853602 ], [ 124.367278, 7.853211 ], [ 124.367158, 7.852973 ], [ 124.366737, 7.852675 ], [ 124.366339, 7.852329 ], [ 124.366086, 7.852246 ], [ 124.365833, 7.852281 ], [ 124.365641, 7.852484 ], [ 124.365436, 7.852651 ], [ 124.365171, 7.852722 ], [ 124.364919, 7.852758 ], [ 124.364666, 7.852711 ], [ 124.364401, 7.852639 ], [ 124.364281, 7.85246 ], [ 124.364028, 7.852556 ], [ 124.363895, 7.852782 ], [ 124.363522, 7.853176 ], [ 124.363377, 7.853414 ], [ 124.363221, 7.853617 ], [ 124.36304, 7.853796 ], [ 124.362788, 7.853784 ], [ 124.362691, 7.853557 ], [ 124.362535, 7.853092 ], [ 124.362402, 7.852615 ], [ 124.362234, 7.852424 ], [ 124.362029, 7.852269 ], [ 124.361812, 7.852126 ], [ 124.36162, 7.851971 ], [ 124.361379, 7.851876 ], [ 124.361126, 7.85184 ], [ 124.360837, 7.85184 ], [ 124.360572, 7.851864 ], [ 124.360356, 7.851995 ], [ 124.360223, 7.85221 ], [ 124.360163, 7.85246 ], [ 124.360296, 7.852699 ], [ 124.360741, 7.852901 ], [ 124.360897, 7.85308 ], [ 124.360897, 7.854058 ], [ 124.36097, 7.854297 ], [ 124.361078, 7.854523 ], [ 124.361066, 7.855263 ], [ 124.361042, 7.855501 ], [ 124.360982, 7.85574 ], [ 124.360729, 7.85574 ], [ 124.3605, 7.855645 ], [ 124.359982, 7.855537 ], [ 124.359549, 7.855275 ], [ 124.359392, 7.85506 ], [ 124.359513, 7.854595 ], [ 124.359633, 7.85438 ], [ 124.359718, 7.854166 ], [ 124.359694, 7.853927 ], [ 124.359465, 7.85382 ], [ 124.3592, 7.853724 ], [ 124.358682, 7.853653 ], [ 124.358417, 7.853605 ], [ 124.358177, 7.853522 ], [ 124.358008, 7.853343 ], [ 124.358068, 7.85308 ], [ 124.35814, 7.852866 ], [ 124.358237, 7.852651 ], [ 124.358285, 7.852424 ], [ 124.35802, 7.852377 ], [ 124.357791, 7.852508 ], [ 124.357478, 7.852913 ], [ 124.357334, 7.853128 ], [ 124.357201, 7.853367 ], [ 124.357093, 7.853593 ], [ 124.357081, 7.853844 ], [ 124.357093, 7.854094 ], [ 124.357021, 7.854344 ], [ 124.3569, 7.854559 ], [ 124.356792, 7.854798 ], [ 124.356539, 7.855096 ], [ 124.356347, 7.855287 ], [ 124.356142, 7.855442 ], [ 124.355949, 7.855633 ], [ 124.355721, 7.85574 ], [ 124.355468, 7.85574 ], [ 124.355215, 7.855776 ], [ 124.35495, 7.855764 ], [ 124.354866, 7.855525 ], [ 124.355022, 7.855358 ], [ 124.355251, 7.855251 ], [ 124.355371, 7.855048 ], [ 124.355203, 7.854583 ], [ 124.35495, 7.854571 ], [ 124.354685, 7.854535 ], [ 124.354432, 7.854547 ], [ 124.354264, 7.85475 ], [ 124.35418, 7.854989 ], [ 124.354324, 7.855191 ], [ 124.35442, 7.855406 ], [ 124.35424, 7.855609 ], [ 124.353987, 7.855597 ], [ 124.353758, 7.855478 ], [ 124.353602, 7.855287 ], [ 124.353421, 7.855084 ], [ 124.353156, 7.855084 ], [ 124.352699, 7.855322 ], [ 124.35253, 7.855525 ], [ 124.352338, 7.85574 ], [ 124.351916, 7.85605 ], [ 124.351422, 7.856277 ], [ 124.351194, 7.856396 ], [ 124.350941, 7.856444 ], [ 124.350411, 7.856467 ], [ 124.350146, 7.856432 ], [ 124.349893, 7.856312 ], [ 124.349689, 7.856145 ], [ 124.349544, 7.855955 ], [ 124.349279, 7.85568 ], [ 124.349135, 7.855466 ], [ 124.348942, 7.855287 ], [ 124.34869, 7.855167 ], [ 124.348437, 7.855084 ], [ 124.348232, 7.854929 ], [ 124.348015, 7.854798 ], [ 124.347799, 7.854643 ], [ 124.347293, 7.854512 ], [ 124.34704, 7.8545 ], [ 124.346775, 7.854547 ], [ 124.346523, 7.854523 ], [ 124.34627, 7.854428 ], [ 124.346065, 7.854249 ], [ 124.345933, 7.854046 ], [ 124.345945, 7.853569 ], [ 124.345788, 7.853355 ], [ 124.345535, 7.853283 ], [ 124.345042, 7.853092 ], [ 124.344801, 7.852949 ], [ 124.344584, 7.852806 ], [ 124.344452, 7.852591 ], [ 124.344548, 7.852365 ], [ 124.344656, 7.85215 ], [ 124.344693, 7.851923 ], [ 124.344693, 7.851458 ], [ 124.344572, 7.851244 ], [ 124.344392, 7.851065 ], [ 124.344223, 7.850874 ], [ 124.343886, 7.850468 ], [ 124.343741, 7.850266 ], [ 124.343549, 7.850099 ], [ 124.343344, 7.849956 ], [ 124.343091, 7.849932 ], [ 124.343007, 7.85017 ], [ 124.343164, 7.850361 ], [ 124.343296, 7.850576 ], [ 124.34338, 7.850814 ], [ 124.343452, 7.851065 ], [ 124.343477, 7.851327 ], [ 124.343356, 7.851542 ], [ 124.343079, 7.851602 ], [ 124.342815, 7.851578 ], [ 124.342562, 7.85153 ], [ 124.34208, 7.851363 ], [ 124.341815, 7.851315 ], [ 124.341358, 7.851065 ], [ 124.341117, 7.850957 ], [ 124.340876, 7.85085 ], [ 124.340623, 7.850755 ], [ 124.340407, 7.850659 ], [ 124.340142, 7.850683 ], [ 124.339889, 7.850755 ], [ 124.339636, 7.850707 ], [ 124.339504, 7.850492 ], [ 124.339335, 7.850301 ], [ 124.339118, 7.850158 ], [ 124.338914, 7.849991 ], [ 124.338757, 7.850194 ], [ 124.338757, 7.850445 ], [ 124.338649, 7.850671 ], [ 124.338432, 7.850802 ], [ 124.33824, 7.850635 ], [ 124.338119, 7.850421 ], [ 124.338011, 7.850182 ], [ 124.337686, 7.849753 ], [ 124.337421, 7.849681 ], [ 124.337168, 7.849681 ], [ 124.336915, 7.849753 ], [ 124.336434, 7.849944 ], [ 124.336181, 7.849979 ], [ 124.336048, 7.849765 ], [ 124.336024, 7.849514 ], [ 124.335979, 7.849414 ], [ 124.335928, 7.8493 ], [ 124.335772, 7.849109 ], [ 124.335844, 7.848894 ], [ 124.336036, 7.848739 ], [ 124.336265, 7.848811 ], [ 124.336361, 7.849025 ], [ 124.336518, 7.849216 ], [ 124.336747, 7.849133 ], [ 124.337024, 7.848966 ], [ 124.337126, 7.848906 ], [ 124.337331, 7.848781 ], [ 124.337409, 7.848685 ], [ 124.337469, 7.84859 ], [ 124.33762, 7.848399 ], [ 124.337698, 7.848316 ], [ 124.33777, 7.848226 ], [ 124.337908, 7.848024 ], [ 124.337926, 7.847904 ], [ 124.337896, 7.847666 ], [ 124.337896, 7.847546 ], [ 124.337932, 7.847421 ], [ 124.338011, 7.84732 ], [ 124.338101, 7.847242 ], [ 124.338149, 7.847129 ], [ 124.338065, 7.84704 ], [ 124.337945, 7.847004 ], [ 124.337686, 7.846968 ], [ 124.337559, 7.846932 ], [ 124.337439, 7.846873 ], [ 124.3373, 7.846884 ], [ 124.33721, 7.84698 ], [ 124.337204, 7.84723 ], [ 124.337156, 7.847362 ], [ 124.337024, 7.847582 ], [ 124.336927, 7.847827 ], [ 124.336789, 7.848041 ], [ 124.336686, 7.848125 ], [ 124.336548, 7.848149 ], [ 124.336416, 7.848149 ], [ 124.336289, 7.848131 ], [ 124.336175, 7.848077 ], [ 124.335952, 7.84794 ], [ 124.335898, 7.847821 ], [ 124.335928, 7.847702 ], [ 124.336, 7.847594 ], [ 124.336084, 7.847499 ], [ 124.336139, 7.847391 ], [ 124.336163, 7.847272 ], [ 124.336139, 7.847034 ], [ 124.336169, 7.846914 ], [ 124.336181, 7.846443 ], [ 124.336127, 7.84633 ], [ 124.335994, 7.84633 ], [ 124.335855, 7.846358 ], [ 124.335699, 7.846399 ], [ 124.335643, 7.846418 ], [ 124.33558, 7.846475 ], [ 124.335552, 7.84652 ], [ 124.335537, 7.846579 ], [ 124.335522, 7.846781 ], [ 124.335515, 7.846897 ], [ 124.335489, 7.847036 ], [ 124.335465, 7.84717 ], [ 124.335396, 7.847323 ], [ 124.335273, 7.847485 ], [ 124.335163, 7.847669 ], [ 124.335082, 7.847813 ], [ 124.335022, 7.847894 ], [ 124.334941, 7.84797 ], [ 124.334842, 7.848011 ], [ 124.334734, 7.848028 ], [ 124.334612, 7.848027 ], [ 124.334414, 7.848007 ], [ 124.334331, 7.847986 ], [ 124.334274, 7.847939 ], [ 124.334254, 7.847898 ], [ 124.334252, 7.847826 ], [ 124.334272, 7.847757 ], [ 124.334315, 7.847659 ], [ 124.334451, 7.847463 ], [ 124.334569, 7.847328 ], [ 124.334628, 7.847244 ], [ 124.334673, 7.847111 ], [ 124.3347, 7.846953 ], [ 124.334681, 7.8468 ], [ 124.334634, 7.846682 ], [ 124.33459, 7.846627 ], [ 124.334455, 7.846511 ], [ 124.334314, 7.846431 ], [ 124.33417, 7.846365 ], [ 124.334011, 7.846302 ], [ 124.333907, 7.846248 ], [ 124.33382, 7.84618 ], [ 124.333717, 7.846081 ], [ 124.333631, 7.84594 ], [ 124.333575, 7.845828 ], [ 124.333551, 7.845682 ], [ 124.333549, 7.845585 ], [ 124.333564, 7.845496 ], [ 124.333587, 7.845429 ], [ 124.333622, 7.845366 ], [ 124.333689, 7.84532 ], [ 124.333827, 7.845262 ], [ 124.333991, 7.845225 ], [ 124.334291, 7.845155 ], [ 124.334506, 7.845093 ], [ 124.334638, 7.84503 ], [ 124.334763, 7.844942 ], [ 124.334834, 7.844869 ], [ 124.334873, 7.844789 ], [ 124.33488, 7.844731 ], [ 124.33486, 7.844676 ], [ 124.334829, 7.844602 ], [ 124.334779, 7.844565 ], [ 124.334622, 7.844526 ], [ 124.334334, 7.844502 ], [ 124.334219, 7.844495 ], [ 124.33403, 7.844501 ], [ 124.333756, 7.844493 ], [ 124.333633, 7.84449 ], [ 124.333468, 7.844482 ], [ 124.333395, 7.844474 ], [ 124.333309, 7.844437 ], [ 124.33325, 7.844385 ], [ 124.333203, 7.844316 ], [ 124.333169, 7.844222 ], [ 124.333142, 7.844096 ], [ 124.333138, 7.843985 ], [ 124.333155, 7.843894 ], [ 124.333195, 7.843805 ], [ 124.333248, 7.843706 ], [ 124.333275, 7.843644 ], [ 124.333303, 7.843555 ], [ 124.333323, 7.843442 ], [ 124.333326, 7.843337 ], [ 124.333281, 7.843221 ], [ 124.333205, 7.843095 ], [ 124.333002, 7.842884 ], [ 124.332798, 7.84271 ], [ 124.332521, 7.842454 ], [ 124.332352, 7.842263 ], [ 124.332274, 7.842162 ], [ 124.332184, 7.842066 ], [ 124.331844, 7.84174 ], [ 124.331683, 7.841597 ], [ 124.331581, 7.841525 ], [ 124.331471, 7.841443 ], [ 124.331315, 7.841387 ], [ 124.331254, 7.841403 ], [ 124.331176, 7.841477 ], [ 124.33113, 7.841591 ], [ 124.331133, 7.841737 ], [ 124.331157, 7.841838 ], [ 124.331256, 7.842104 ], [ 124.331329, 7.842245 ], [ 124.33135, 7.842335 ], [ 124.331345, 7.842489 ], [ 124.331272, 7.842596 ], [ 124.331121, 7.842678 ], [ 124.330941, 7.842733 ], [ 124.330733, 7.842742 ], [ 124.330476, 7.842759 ], [ 124.329833, 7.842711 ] ] } },
{ "type": "Feature", "properties": { "full_id": "w418924749", "osm_id": "418924749", "osm_type": "way", "waterway": "river", "intermittent": null, "tunnel": null, "alt_name": null, "layer": null, "name:etymology:wikidata": null, "name:etymology": null, "wikipedia": null, "wikidata": null, "name": null }, "geometry": { "type": "LineString", "coordinates": [ [ 124.388791, 7.891219 ], [ 124.388579, 7.891022 ], [ 124.388257, 7.890839 ], [ 124.387917, 7.890432 ], [ 124.387681, 7.889991 ], [ 124.387458, 7.889988 ], [ 124.387383, 7.890347 ], [ 124.387244, 7.890764 ], [ 124.38685, 7.891059 ], [ 124.386415, 7.891125 ], [ 124.385932, 7.890897 ], [ 124.385554, 7.890566 ] ] } },
{ "type": "Feature", "properties": { "full_id": "w418924766", "osm_id": "418924766", "osm_type": "way", "waterway": "river", "intermittent": null, "tunnel": null, "alt_name": null, "layer": "-1", "name:etymology:wikidata": null, "name:etymology": null, "wikipedia": null, "wikidata": null, "name": null }, "geometry": { "type": "LineString", "coordinates": [ [ 124.388871, 7.891285 ], [ 124.388791, 7.891219 ] ] } },
{ "type": "Feature", "properties": { "full_id": "w498140215", "osm_id": "498140215", "osm_type": "way", "waterway": "river", "intermittent": null, "tunnel": null, "alt_name": null, "layer": null, "name:etymology:wikidata": null, "name:etymology": null, "wikipedia": null, "wikidata": null, "name": "Masui River" }, "geometry": { "type": "LineString", "coordinates": [ [ 124.321714, 7.776144 ], [ 124.322554, 7.776217 ], [ 124.3233, 7.776468 ], [ 124.323553, 7.776456 ], [ 124.323854, 7.776456 ], [ 124.324035, 7.776253 ], [ 124.324047, 7.77574 ], [ 124.324047, 7.775597 ], [ 124.324119, 7.775358 ], [ 124.324155, 7.774857 ], [ 124.324203, 7.774583 ], [ 124.324276, 7.774344 ], [ 124.324396, 7.774082 ], [ 124.324745, 7.773569 ], [ 124.324962, 7.773414 ], [ 124.325191, 7.773283 ], [ 124.325443, 7.773247 ], [ 124.325696, 7.773235 ], [ 124.325961, 7.773235 ], [ 124.326515, 7.773307 ], [ 124.326768, 7.773378 ], [ 124.326996, 7.773485 ], [ 124.327972, 7.773712 ], [ 124.328212, 7.773796 ], [ 124.328477, 7.773832 ], [ 124.328754, 7.773832 ], [ 124.329007, 7.773736 ], [ 124.329308, 7.773664 ], [ 124.329561, 7.773617 ], [ 124.329838, 7.773581 ], [ 124.330115, 7.773617 ], [ 124.330367, 7.773664 ], [ 124.330596, 7.773784 ], [ 124.330801, 7.773939 ], [ 124.33115, 7.774309 ], [ 124.331608, 7.774523 ], [ 124.33186, 7.774595 ], [ 124.332125, 7.774607 ], [ 124.332631, 7.774464 ], [ 124.332872, 7.774571 ], [ 124.332992, 7.774774 ], [ 124.33304, 7.775012 ], [ 124.333016, 7.775239 ], [ 124.33292, 7.775466 ], [ 124.332559, 7.775788 ], [ 124.332426, 7.77599 ], [ 124.332294, 7.776456 ], [ 124.332209, 7.776969 ], [ 124.332209, 7.777207 ], [ 124.332318, 7.777446 ], [ 124.332474, 7.777649 ], [ 124.332655, 7.777827 ], [ 124.332859, 7.777983 ], [ 124.333112, 7.778078 ], [ 124.333425, 7.778126 ], [ 124.333955, 7.778138 ], [ 124.334461, 7.778293 ], [ 124.334702, 7.778388 ], [ 124.334858, 7.778591 ], [ 124.335087, 7.779008 ], [ 124.335243, 7.779474 ], [ 124.335412, 7.779664 ], [ 124.335641, 7.779772 ], [ 124.335857, 7.779951 ], [ 124.33611, 7.780034 ], [ 124.336616, 7.779951 ], [ 124.336796, 7.780142 ], [ 124.336844, 7.780392 ], [ 124.336844, 7.780655 ], [ 124.336532, 7.781669 ], [ 124.336519, 7.781895 ], [ 124.336544, 7.782122 ], [ 124.336604, 7.78236 ], [ 124.33658, 7.782885 ], [ 124.336507, 7.783124 ], [ 124.336267, 7.783529 ], [ 124.335845, 7.784388 ], [ 124.335797, 7.784627 ], [ 124.335833, 7.784865 ], [ 124.335954, 7.785092 ], [ 124.336207, 7.785152 ], [ 124.336483, 7.785295 ], [ 124.336676, 7.78545 ], [ 124.336796, 7.785676 ], [ 124.336857, 7.785915 ], [ 124.337097, 7.78601 ], [ 124.33735, 7.78607 ], [ 124.338109, 7.785998 ], [ 124.338867, 7.785688 ], [ 124.339313, 7.785402 ], [ 124.339565, 7.785378 ], [ 124.33983, 7.78533 ], [ 124.340095, 7.78533 ], [ 124.340601, 7.785497 ], [ 124.340829, 7.785629 ], [ 124.34089, 7.785867 ], [ 124.34089, 7.786094 ], [ 124.340866, 7.78681 ], [ 124.340806, 7.787287 ], [ 124.340793, 7.7878 ], [ 124.340673, 7.788301 ], [ 124.34036, 7.789589 ], [ 124.340252, 7.789792 ], [ 124.340107, 7.789982 ], [ 124.339638, 7.79015 ], [ 124.339361, 7.790185 ], [ 124.338891, 7.79034 ], [ 124.338674, 7.790436 ], [ 124.338434, 7.790507 ], [ 124.338205, 7.790555 ], [ 124.337964, 7.790555 ], [ 124.337458, 7.790627 ], [ 124.337266, 7.790758 ], [ 124.337182, 7.790972 ], [ 124.337218, 7.791223 ], [ 124.337338, 7.791438 ], [ 124.337507, 7.791629 ], [ 124.337904, 7.791951 ], [ 124.339445, 7.792821 ], [ 124.339686, 7.792917 ], [ 124.339902, 7.793072 ], [ 124.340577, 7.793418 ], [ 124.341022, 7.793704 ], [ 124.341263, 7.793835 ], [ 124.341769, 7.79405 ], [ 124.342274, 7.794205 ], [ 124.342539, 7.794265 ], [ 124.34278, 7.794348 ], [ 124.342961, 7.794515 ], [ 124.343298, 7.794921 ], [ 124.343599, 7.795398 ], [ 124.343767, 7.795624 ], [ 124.343815, 7.795863 ], [ 124.343743, 7.796376 ], [ 124.343767, 7.796889 ], [ 124.343851, 7.797127 ], [ 124.344357, 7.7977 ], [ 124.34461, 7.797736 ], [ 124.344875, 7.797736 ], [ 124.345152, 7.797712 ], [ 124.34573, 7.797676 ], [ 124.34597, 7.79776 ], [ 124.346356, 7.798094 ], [ 124.346271, 7.79832 ], [ 124.346259, 7.798571 ], [ 124.346295, 7.798821 ], [ 124.346548, 7.799263 ], [ 124.346837, 7.799716 ], [ 124.346921, 7.799954 ], [ 124.347042, 7.800181 ], [ 124.347138, 7.800646 ], [ 124.347138, 7.801123 ], [ 124.346958, 7.801398 ], [ 124.346849, 7.801612 ], [ 124.346837, 7.801839 ], [ 124.346873, 7.802101 ], [ 124.34697, 7.802352 ], [ 124.34697, 7.802578 ], [ 124.347042, 7.802805 ], [ 124.347283, 7.803246 ], [ 124.347548, 7.803676 ], [ 124.347728, 7.803879 ], [ 124.347872, 7.804081 ], [ 124.347945, 7.80432 ], [ 124.348005, 7.804558 ], [ 124.348053, 7.804809 ], [ 124.348053, 7.805047 ], [ 124.347885, 7.805525 ], [ 124.347704, 7.805703 ], [ 124.347463, 7.805715 ], [ 124.347234, 7.805668 ], [ 124.346753, 7.805668 ], [ 124.346488, 7.805739 ], [ 124.346247, 7.805727 ], [ 124.346006, 7.805751 ], [ 124.34579, 7.805823 ], [ 124.34526, 7.805918 ], [ 124.344321, 7.806109 ], [ 124.34294, 7.806495 ], [ 124.342232, 7.806748 ], [ 124.341852, 7.806881 ], [ 124.341624, 7.807016 ], [ 124.341468, 7.80723 ], [ 124.341335, 7.807529 ], [ 124.341311, 7.807755 ], [ 124.341299, 7.808721 ], [ 124.341155, 7.809437 ], [ 124.341143, 7.809664 ], [ 124.341143, 7.811596 ], [ 124.341554, 7.812398 ], [ 124.34169, 7.812701 ], [ 124.341861, 7.812988 ], [ 124.341844, 7.813325 ], [ 124.341571, 7.813561 ], [ 124.341469, 7.813916 ], [ 124.341503, 7.81427 ], [ 124.341809, 7.814506 ], [ 124.341963, 7.814827 ], [ 124.341997, 7.815164 ], [ 124.341997, 7.815484 ], [ 124.34198, 7.816176 ], [ 124.341946, 7.816513 ], [ 124.341775, 7.8168 ], [ 124.341452, 7.816817 ], [ 124.341145, 7.81621 ], [ 124.340941, 7.815923 ], [ 124.340635, 7.815788 ], [ 124.340311, 7.815721 ], [ 124.340056, 7.815501 ], [ 124.339749, 7.815282 ], [ 124.339426, 7.815248 ], [ 124.339102, 7.815366 ], [ 124.338813, 7.815974 ], [ 124.338609, 7.816243 ], [ 124.338149, 7.816766 ], [ 124.337894, 7.817003 ], [ 124.33757, 7.816918 ], [ 124.337247, 7.816901 ], [ 124.336412, 7.816935 ], [ 124.336072, 7.816969 ], [ 124.335714, 7.817036 ], [ 124.335033, 7.81707 ], [ 124.334046, 7.817154 ], [ 124.333041, 7.817154 ], [ 124.332597, 7.817164 ], [ 124.332035, 7.817116 ], [ 124.331431, 7.817065 ], [ 124.331096, 7.817018 ], [ 124.330431, 7.816932 ], [ 124.329991, 7.816928 ], [ 124.32778, 7.817019 ], [ 124.326758, 7.817003 ], [ 124.326418, 7.816969 ], [ 124.325396, 7.816986 ], [ 124.325073, 7.817053 ], [ 124.324749, 7.817171 ], [ 124.324443, 7.817323 ], [ 124.323779, 7.817576 ], [ 124.323489, 7.817745 ], [ 124.323217, 7.817913 ], [ 124.322349, 7.818504 ], [ 124.322076, 7.818706 ], [ 124.321821, 7.818959 ], [ 124.321106, 7.819769 ], [ 124.320902, 7.820056 ], [ 124.32051, 7.820629 ], [ 124.320374, 7.820933 ], [ 124.320272, 7.821253 ], [ 124.320459, 7.823901 ], [ 124.320561, 7.824239 ], [ 124.320612, 7.824559 ], [ 124.320595, 7.82488 ], [ 124.320442, 7.825183 ], [ 124.32022, 7.82547 ], [ 124.319693, 7.825909 ], [ 124.319488, 7.826179 ], [ 124.319318, 7.826499 ], [ 124.318858, 7.827005 ], [ 124.318654, 7.827275 ], [ 124.318484, 7.827579 ], [ 124.317513, 7.828236 ], [ 124.317241, 7.828456 ], [ 124.316883, 7.829046 ], [ 124.316679, 7.829316 ], [ 124.31641, 7.829461 ], [ 124.316107, 7.829714 ], [ 124.315731, 7.830064 ], [ 124.31553, 7.830269 ], [ 124.315399, 7.830471 ], [ 124.315259, 7.830729 ], [ 124.315179, 7.831003 ], [ 124.315166, 7.831218 ], [ 124.315206, 7.831377 ], [ 124.315284, 7.831529 ], [ 124.315372, 7.831619 ], [ 124.315568, 7.831778 ], [ 124.315815, 7.831927 ], [ 124.316094, 7.832041 ], [ 124.316437, 7.832273 ], [ 124.31659, 7.832453 ], [ 124.316778, 7.832809 ], [ 124.316845, 7.833043 ], [ 124.316828, 7.833266 ], [ 124.316775, 7.833463 ], [ 124.316697, 7.833604 ], [ 124.316437, 7.833822 ], [ 124.316129, 7.834079 ], [ 124.315858, 7.834276 ], [ 124.315611, 7.834473 ], [ 124.315198, 7.834808 ], [ 124.315034, 7.834932 ], [ 124.31483, 7.83502 ], [ 124.314511, 7.835081 ], [ 124.314091, 7.835101 ], [ 124.31375, 7.835186 ], [ 124.313427, 7.835371 ], [ 124.313223, 7.835675 ], [ 124.313067, 7.835918 ] ] } },
{ "type": "Feature", "properties": { "full_id": "w907881570", "osm_id": "907881570", "osm_type": "way", "waterway": "river", "intermittent": null, "tunnel": null, "alt_name": null, "layer": null, "name:etymology:wikidata": null, "name:etymology": null, "wikipedia": null, "wikidata": null, "name": null }, "geometry": { "type": "LineString", "coordinates": [ [ 124.380292, 7.834959 ], [ 124.380314, 7.836599 ], [ 124.380228, 7.837444 ], [ 124.380067, 7.838118 ], [ 124.379949, 7.838631 ], [ 124.379914, 7.838876 ], [ 124.379912, 7.83907 ] ] } },
{ "type": "Feature", "properties": { "full_id": "w1001808157", "osm_id": "1001808157", "osm_type": "way", "waterway": "river", "intermittent": null, "tunnel": null, "alt_name": null, "layer": null, "name:etymology:wikidata": null, "name:etymology": null, "wikipedia": null, "wikidata": null, "name": null }, "geometry": { "type": "LineString", "coordinates": [ [ 124.353202, 7.791208 ], [ 124.353232, 7.791271 ], [ 124.353214, 7.791362 ], [ 124.353003, 7.791706 ], [ 124.352789, 7.791923 ], [ 124.352448, 7.792655 ], [ 124.352411, 7.792748 ], [ 124.352255, 7.793022 ], [ 124.351978, 7.793314 ], [ 124.351933, 7.793441 ], [ 124.351908, 7.794298 ], [ 124.351898, 7.794391 ], [ 124.351931, 7.794453 ], [ 124.352051, 7.794615 ], [ 124.352113, 7.794669 ], [ 124.352175, 7.794672 ], [ 124.35235, 7.794608 ], [ 124.352729, 7.794575 ], [ 124.352914, 7.794563 ], [ 124.353027, 7.794603 ], [ 124.353199, 7.79481 ], [ 124.353293, 7.795017 ], [ 124.353304, 7.795109 ], [ 124.353262, 7.795402 ], [ 124.353214, 7.795691 ], [ 124.35318, 7.79583 ], [ 124.352871, 7.79623 ], [ 124.352802, 7.796326 ], [ 124.352773, 7.796476 ], [ 124.352745, 7.797322 ], [ 124.352739, 7.79776 ], [ 124.352615, 7.798298 ], [ 124.352537, 7.798449 ], [ 124.352332, 7.798768 ], [ 124.352049, 7.799229 ], [ 124.351762, 7.799559 ], [ 124.351617, 7.799821 ], [ 124.351548, 7.800042 ], [ 124.351497, 7.800305 ], [ 124.351472, 7.800373 ], [ 124.351302, 7.800479 ], [ 124.350889, 7.800664 ], [ 124.350728, 7.8007 ], [ 124.349884, 7.800623 ], [ 124.349737, 7.800616 ], [ 124.349538, 7.800643 ], [ 124.349334, 7.800692 ], [ 124.349136, 7.800844 ], [ 124.348751, 7.801223 ], [ 124.348369, 7.801461 ], [ 124.348269, 7.801529 ], [ 124.348076, 7.801792 ], [ 124.347913, 7.802143 ], [ 124.347894, 7.802216 ], [ 124.347909, 7.802264 ], [ 124.347997, 7.802376 ], [ 124.348017, 7.802445 ], [ 124.34802, 7.802755 ], [ 124.347989, 7.803145 ], [ 124.34795, 7.803262 ], [ 124.347874, 7.803332 ], [ 124.347548, 7.803676 ] ] } },
{ "type": "Feature", "properties": { "full_id": "w1463658675", "osm_id": "1463658675", "osm_type": "way", "waterway": "river", "intermittent": null, "tunnel": "flooded", "alt_name": null, "layer": "-1", "name:etymology:wikidata": null, "name:etymology": null, "wikipedia": "en:Agus River", "wikidata": "Q398714", "name": "Agus River" }, "geometry": { "type": "LineString", "coordinates": [ [ 124.280526, 8.042499 ], [ 124.280482, 8.042594 ] ] } },
{ "type": "Feature", "properties": { "full_id": "w1463658676", "osm_id": "1463658676", "osm_type": "way", "waterway": "river", "intermittent": null, "tunnel": null, "alt_name": null, "layer": null, "name:etymology:wikidata": null, "name:etymology": null, "wikipedia": "en:Agus River", "wikidata": "Q398714", "name": "Agus River" }, "geometry": { "type": "LineString", "coordinates": [ [ 124.288105, 8.020827 ], [ 124.287788, 8.02127 ], [ 124.287142, 8.022119 ], [ 124.286769, 8.022568 ], [ 124.286602, 8.022826 ], [ 124.286463, 8.023041 ], [ 124.286361, 8.023333 ], [ 124.286317, 8.023717 ], [ 124.286276, 8.024162 ], [ 124.286227, 8.024544 ], [ 124.286107, 8.024934 ], [ 124.285843, 8.025513 ], [ 124.285696, 8.026027 ], [ 124.285678, 8.026387 ], [ 124.285748, 8.027123 ], [ 124.285809, 8.027806 ], [ 124.285789, 8.028418 ], [ 124.28575, 8.028971 ], [ 124.285611, 8.029485 ], [ 124.285354, 8.030288 ], [ 124.285346, 8.030627 ], [ 124.285556, 8.031231 ], [ 124.285472, 8.031751 ], [ 124.285138, 8.033139 ], [ 124.284829, 8.034244 ], [ 124.284622, 8.034749 ], [ 124.284402, 8.035062 ], [ 124.2838, 8.035663 ], [ 124.283502, 8.036055 ], [ 124.283288, 8.036411 ], [ 124.283134, 8.036889 ], [ 124.282939, 8.037885 ], [ 124.282893, 8.038281 ], [ 124.282805, 8.038621 ], [ 124.282637, 8.039062 ], [ 124.282467, 8.039412 ], [ 124.2822, 8.039863 ], [ 124.281559, 8.040832 ], [ 124.281029, 8.041635 ], [ 124.280526, 8.042499 ] ] } },
{ "type": "Feature", "properties": { "full_id": "w1463658677", "osm_id": "1463658677", "osm_type": "way", "waterway": "river", "intermittent": null, "tunnel": null, "alt_name": null, "layer": null, "name:etymology:wikidata": null, "name:etymology": null, "wikipedia": "en:Agus River", "wikidata": "Q398714", "name": "Agus River" }, "geometry": { "type": "LineString", "coordinates": [ [ 124.287525, 7.997793 ], [ 124.287375, 7.99847 ], [ 124.287342, 7.998845 ], [ 124.287415, 7.999132 ], [ 124.287633, 7.999416 ], [ 124.289117, 8.00143 ], [ 124.289454, 8.001903 ], [ 124.289601, 8.002029 ], [ 124.289744, 8.002138 ], [ 124.289939, 8.002203 ], [ 124.290132, 8.002266 ], [ 124.290362, 8.002299 ], [ 124.290515, 8.002338 ], [ 124.291018, 8.002465 ], [ 124.291449, 8.00264 ], [ 124.291834, 8.002811 ], [ 124.293714, 8.005306 ], [ 124.294142, 8.005731 ], [ 124.294619, 8.005918 ], [ 124.295265, 8.006266 ], [ 124.295707, 8.006925 ], [ 124.297297, 8.007678 ], [ 124.297776, 8.007772 ], [ 124.298166, 8.008054 ], [ 124.298248, 8.00827 ], [ 124.298635, 8.008572 ], [ 124.299061, 8.00843 ], [ 124.299377, 8.008552 ], [ 124.299659, 8.008484 ], [ 124.299848, 8.008576 ], [ 124.300012, 8.009012 ], [ 124.300027, 8.009779 ], [ 124.301189, 8.010764 ], [ 124.301548, 8.011474 ], [ 124.301839, 8.012315 ], [ 124.301874, 8.012966 ], [ 124.301851, 8.013288 ], [ 124.301787, 8.013543 ], [ 124.301716, 8.013725 ], [ 124.301572, 8.01391 ], [ 124.301366, 8.014037 ], [ 124.301047, 8.014097 ], [ 124.300225, 8.01412 ], [ 124.299644, 8.014127 ], [ 124.299206, 8.014173 ], [ 124.29879, 8.014267 ], [ 124.298525, 8.014417 ], [ 124.298394, 8.014624 ], [ 124.29826, 8.015 ], [ 124.298163, 8.015195 ], [ 124.298033, 8.015291 ], [ 124.297892, 8.015296 ], [ 124.297773, 8.015237 ], [ 124.297551, 8.015071 ], [ 124.297334, 8.014991 ], [ 124.297058, 8.014939 ], [ 124.29652, 8.014918 ], [ 124.295766, 8.0148 ], [ 124.2956, 8.015043 ], [ 124.295152, 8.015207 ], [ 124.294668, 8.015244 ], [ 124.29423, 8.015413 ], [ 124.294145, 8.015716 ], [ 124.294187, 8.016015 ], [ 124.29461, 8.016946 ], [ 124.294698, 8.017153 ], [ 124.294751, 8.017357 ], [ 124.294762, 8.01758 ], [ 124.294703, 8.017766 ], [ 124.294553, 8.017878 ], [ 124.294366, 8.017872 ], [ 124.294142, 8.017793 ], [ 124.293913, 8.017632 ], [ 124.293559, 8.017336 ], [ 124.292991, 8.016909 ], [ 124.292734, 8.016781 ], [ 124.292522, 8.016725 ], [ 124.292246, 8.016699 ], [ 124.291961, 8.01672 ], [ 124.291613, 8.016845 ], [ 124.291136, 8.017158 ], [ 124.290919, 8.017363 ], [ 124.290744, 8.01761 ], [ 124.290472, 8.018266 ], [ 124.290186, 8.018853 ], [ 124.290047, 8.019161 ], [ 124.289963, 8.019376 ], [ 124.289866, 8.019513 ], [ 124.289577, 8.019755 ], [ 124.28928, 8.01996 ], [ 124.288825, 8.020287 ], [ 124.288105, 8.020827 ] ] } },
{ "type": "Feature", "properties": { "full_id": "Sawir", "osm_id": null, "osm_type": null, "waterway": null, "intermittent": null, "tunnel": null, "alt_name": null, "layer": null, "name:etymology:wikidata": null, "name:etymology": null, "wikipedia": null, "wikidata": null, "name": null }, "geometry": { "type": "LineString", "coordinates": [ [ 124.332909, 7.800469 ], [ 124.333907, 7.79986 ], [ 124.334294, 7.799916 ], [ 124.33451, 7.79983 ], [ 124.334863, 7.799421 ], [ 124.334918, 7.798313 ], [ 124.334496, 7.797118 ], [ 124.334427, 7.796975 ], [ 124.333623, 7.795468 ], [ 124.33313, 7.794671 ], [ 124.332594, 7.79384 ], [ 124.332283, 7.793344 ], [ 124.33147, 7.792547 ], [ 124.330044, 7.791348 ], [ 124.328755, 7.790594 ], [ 124.328176, 7.79026 ], [ 124.324208, 7.788504 ], [ 124.324035, 7.788401 ], [ 124.322617, 7.787793 ], [ 124.321934, 7.78757 ], [ 124.321934, 7.788067 ], [ 124.32209, 7.788084 ], [ 124.32228, 7.788144 ], [ 124.32228, 7.788144 ], [ 124.322574, 7.788281 ], [ 124.323032, 7.788521 ], [ 124.323188, 7.788607 ], [ 124.323551, 7.788787 ], [ 124.323784, 7.788881 ], [ 124.323784, 7.788881 ], [ 124.323931, 7.788898 ], [ 124.32407, 7.788992 ], [ 124.324917, 7.789515 ], [ 124.325998, 7.790183 ], [ 124.326905, 7.790765 ], [ 124.327805, 7.791331 ], [ 124.328375, 7.791682 ], [ 124.32892, 7.792119 ], [ 124.32892, 7.792119 ], [ 124.329395, 7.792547 ], [ 124.329767, 7.79295 ], [ 124.330294, 7.793712 ], [ 124.330856, 7.794877 ], [ 124.331306, 7.79635 ], [ 124.331306, 7.79635 ], [ 124.33179, 7.798029 ], [ 124.331885, 7.799459 ], [ 124.332905, 7.800478 ], [ 124.332992, 7.800427 ] ] } }
]
}
