{
"type": "FeatureCollection",
"name": "Sawir_Tributary",
"crs": { "type": "name", "properties": { "name": "urn:ogc:def:crs:OGC:1.3:CRS84" } },
"xy_coordinate_resolution": 1e-06,
"features": [
{ "type": "Feature", "properties": { "full_id": "w637376849", "osm_id": "637376849", "osm_type": "way", "natural": "wetland", "wetland": "marsh" }, "geometry": { "type": "MultiPolygon", "coordinates": [ [ [ [ 124.324213, 7.78851 ], [ 124.324085, 7.78841 ], [ 124.323861, 7.788329 ], [ 124.323294, 7.788066 ], [ 124.323111, 7.787984 ], [ 124.322599, 7.78779 ], [ 124.32169, 7.787486 ], [ 124.321667, 7.788152 ], [ 124.321781, 7.788107 ], [ 124.321914, 7.78807 ], [ 124.322083, 7.78808 ], [ 124.322458, 7.788224 ], [ 124.322769, 7.788387 ], [ 124.32323, 7.788623 ], [ 124.323564, 7.788791 ], [ 124.323788, 7.788886 ], [ 124.323953, 7.788904 ], [ 124.323934, 7.788908 ], [ 124.326997, 7.790829 ], [ 124.328456, 7.791733 ], [ 124.329271, 7.792413 ], [ 124.329765, 7.792955 ], [ 124.330291, 7.793699 ], [ 124.330891, 7.794964 ], [ 124.331791, 7.798068 ], [ 124.331899, 7.799471 ], [ 124.332907, 7.80047 ], [ 124.333916, 7.799854 ], [ 124.334302, 7.799918 ], [ 124.334495, 7.799832 ], [ 124.33486, 7.799429 ], [ 124.334924, 7.798302 ], [ 124.334474, 7.797047 ], [ 124.333465, 7.795177 ], [ 124.332286, 7.793348 ], [ 124.331406, 7.792487 ], [ 124.330012, 7.791329 ], [ 124.328177, 7.790255 ], [ 124.324237, 7.78852 ], [ 124.324237, 7.788521 ], [ 124.324213, 7.78851 ] ] ] ] } },
{ "type": "Feature", "properties": { "full_id": "w859542924", "osm_id": "859542924", "osm_type": "way", "natural": "wetland", "wetland": null }, "geometry": { "type": "MultiPolygon", "coordinates": [ [ [ [ 124.169917, 7.694607 ], [ 124.169906, 7.694568 ], [ 124.169943, 7.694539 ], [ 124.169958, 7.694566 ], [ 124.169949, 7.6946 ], [ 124.169917, 7.694607 ] ] ] ] } }
]
}
